partnerCode;shopName;shopAddress;workingHours;latitude;longitude
YA55;Воронеж26;"394004, Воронежская обл, Воронеж г, Ленинский пр-кт, дом № 116 с Остановочный комплекс ""Придача""";Пн-Вс (09:00-20:00);51,671739;39,252606
YC37;Петушки;601144, Владимирская обл, Петушинский р-н, Петушки г, Маяковского ул, дом № 12а;Пн-Вс (09:00-19:00);55,93598;39,458382
YD39;Унеча;243300, Брянская обл, Унечский р-н, Унеча г, Иванова ул, дом № 10;Пн-Вс (09:00-19:00);52,842512;32,675886
YA18;Белгород9;308010, Белгородская обл, Белгород г, Б.Хмельницкого пр-кт, дом № 164 ТЦ РИО;Пн-Вс (10:00-21:00);50,642103;36,572131
YC50;Россошь;396659, Воронежская обл, Россошанский р-н, Россошь г, Октябрьская пл, дом № 22б;Пн-Вс (08:00-19:00);50,198806;39,53906
R227;Судогда2 ЕС;601350, Судогда г, Ленина ул 42;Пн-Пт (09:00-18:00);55,95122;40,8626
LD18;Кир Слободской3;613150, Кировская обл, Слободской р-н, Слободской г, Советская ул, дом № 79;Пн-Сб (09:00-20:00), Вс (09:00-19:00);58,730253;50,183053
U569;ЕК Шаля2 ЕС;623030, Шаля пгт, Орджоникидзе ул, д. 2б;Пн-Вс (09:00-20:00);57,25197;58,72426
X621;Якутск Дворец Связи ЕС;677000, Якутск г, Ленина пр-кт 7;Пн-Вс (09:00-21:00);62,03249;129,74441
L161;ТЦ Калита;117418, Москва г, Новоясеневский пр-кт, дом № 7 ТЦ Калита;Пн-Вс (10:00-22:00);55,607489;37,532397
LP32;Прим Владивосток ТЦ Дружба;690039, Приморский край, Владивосток г, Русская ул, дом № 2 А ТЦ Дружба;Пн-Вс (10:00-20:00);43,165384;131,90647
N053;Крск ТЦ Планета2 ЕС;660125, Красноярск г, 9 Мая 77;Пн-Вс (10:00-22:00);56,0509;92,90438
YD80;Россошь3;396658, Воронежская обл, Россошанский р-н, Россошь г, Труда пр-кт, дом № 4Б;Пн-Вс (09:00-20:00);50,197287;50,197287
L449;Тучково;143130, Московская обл, Рузский р-н, Тучково рп, Привокзальная площадь ул, дом № 9;Пн-Вс (09:00-20:00);55,631;36,556734
GL24;Астр Исады2;414000, Астраханская обл, Астрахань г, ул.Красная Набережная/Ногина д98/1, Литер А ,помещение 2;Пн-Вс (08:00-19:00);46,347459;48,056524
X402;Амур Благовещенск Октября3 ЕС;675000, Благовещенск г, 50 лет Октября ул 42;Пн-Вс (09:00-20:00);50,26711;127,53505
R732;Рязань ТРЦ Премьер ЕС;390000, Рязань г, Московское ш 21;Пн-Вс (10:00-22:00);54,63437;39,6888
N812;КО Прокопьевск Гагарина ЕС;653033, Прокопьевск г, Гагарина ул 35;Пн (09:00-19:00), Ср-Пт (09:00-19:00), Вс (09:00-19:00);53,87169;86,64674
NE95;Ирк Шелехов ТЦ Радуга ЕС;г.Шелехов, Квартал 6, дом 30 А;Пн-Вс (09:00-20:00);52,209045;104,092526
R078;Ржев4 ЕС;172390, Ржев г, Ленина ул 18;Пн-Вс (09:00-21:00);56,26668;34,32985
YO66;Вновг Старая Русса;175202, Новгородская обл, Старорусский р-н, Старая Русса г, Поперечная ул, дом № 73;Пн-Вс (09:00-20:00);57,994969;31,345405
GN98;Крнд Старощербиновская;353620, Краснодарский край, Щербиновский р-н, Старощербиновская ст-ца, Первомайская ул, дом № 84;Пн-Вс (08:00-19:00);46,632882;38,65987
RH08;Задонск ТЦ Сити Молл ЕС;399201, Задонск г, Крупской ул 55;Пн-Вс (09:00-19:00);52,38612;38,92274
X633;Якутия Ытык-Кюёль ЕС;678650, Ытык-Кюель с, Мординова ул 22;Пн-Пт (10:00-18:00);62,36019;133,56359
S274;Псков Коммунальная2 ЕС;180024, Псков г, Коммунальная ул 41;Пн-Вс (10:00-21:00);57,82044;28,29088
X638;Якутия Чурапча1 ЕС;678670, Чурапча с, К. Маркса ул 15;Пн-Сб (09:00-19:00);61,99851;132,43918
LE36;СРТ Красный Кут;413235, Саратовская обл, Краснокутский р-н, Красный Кут г, Саратовский пер, дом № 1;Пн-Вс (08:00-18:00);50,949714;46,971469
U834;ЕК Тавда2 ЕС;623950, Тавда г, 9-Мая ул 4 пом 53;Пн-Вс (10:00-18:00);58,04623;65,27372
U685;Пермь Чердынь ЕС;618601, Чердынь г, Успенская ул, 74;Пн-Пт (10:00-18:00);60,40237;56,48063
S827;Мрмск Оленегорск Ленинградский ЕС;184530, Оленегорск г, пр.Ленинградский 7;Пн-Пт (10:00-18:00);68,13856;33,28153
ND42;Тыва Кызыл Добровольцев3 ЕС;667000, Кызыл г, Тувинских добровольцев ул 26;Пн-Вс (09:00-20:00);51,71716;94,44178
GC56;ХМАО Когалым ТЦ Галактика;628481, Ханты-Мансийский Автономный округ - Югра АО, Когалым г, Дружбы Народов ул, дом № 60 ТЦ Галактика;Пн-Вс (10:00-22:00);62,258422;74,542493
LQ47;Ирк ТЦ Карамель;664007, Иркутская обл, Иркутск г, Партизанская ул, дом № 36;Пн-Вс (10:00-22:00);52,279297;104,302576
LR95;Крск Железногорск;662970, Красноярский край, Железногорск г, Ленинградский пр-кт, дом № 1б;Пн-Вс (10:00-20:00);56,23039;93,547893
LR68;КО Промышленная;652380, Кемеровская обл, Промышленновский р-н, Промышленная пгт, Н.Островского ул, дом № 20;Ср-Вс (09:00-19:00);54,905457;85,636109
L377;Одинцово9;143005, Московская обл, Одинцовский р-н, Одинцово г, Можайское ш, дом № 71;Пн-Вс (10:00-20:00);55,677951;37,281157
LQ72;Ирк Депутатская;664047, Иркутская обл, Иркутск г, Депутатская ул, остановка 1-я Советская;Пн-Вс (10:00-20:00);52,277971;104,318168
BK03;Крнд Новороссийск Бирюзов ЕС;353900, Новороссийск г, ул. Советов / ул. Бирюзов д.11 / д.;Пн-Вс (09:00-19:00);44,72271;37,76931
LP19;Амур Благовещенск Октября2;675000, Амурская обл, Благовещенск г, 50 лет Октября ул, дом № 44;Пн-Вт (09:00-19:00), Пт-Вс (09:00-19:00);50,267843;127,53578
YO43;Архск Нарьян-Мар3;166000, Ненецкий АО, Архангельская область, Нарьян-Мар г, им В.И.Ленина ул, дом № 42;Пн-Вс (10:00-21:00);67,636403;52,98641
K748;Крнд Славянск-на-Кубани Ковтюха ЕС;353560, Славянск-на-Кубани г, Ковтюха ул 17;Пн-Вс (08:00-18:00);45,26017;38,12585
K592;РД Каспийск Назарова ЕС;368305, Каспийск г, Назарова ул 1;Пн-Вс (09:00-20:00);42,88698;47,6348
MV91;Железнодорожный ТЦ Эдельвейс ЕС;143980, Железнодорожный г, Советская ул 9;Пн-Вс (10:00-21:00);55,75158;38,01209
YB53;Курск18;305044, Курская обл, Курск г, Союзная ул, дом № 16 Б;Пн-Вс (09:00-21:00);51,74717;36,2449
LQ89;Ирк Свирск;665420, Иркутская обл, Свирск г, Комсомольская ул, дом № 2-2;Пн-Вс (10:00-20:00);53,066721;103,341951
LB09;РТ Канаш Рынок;429330, Чувашская Республика - Чувашия, Канаш г, Московская ул, дом № 14, помещение 2;Пн-Вс (08:00-19:00);55,509;47,494502
LT25;Збк Петровск;673005, Забайкальский край, Петровск-Забайкальский р-н, Петровск-Забайкальский г, Ленина ул, дом № 3;Пн-Вс (09:00-19:00);51,252927;108,825818
LP83;Амур Свободный Ленина;676450, Амурская обл, Свободный г, Ленина ул, дом № 72;Вт-Чт (09:00-19:00), Сб-Вс (09:00-19:00);51,378105;128,135893
LP80;Амур Прогресс Центр;676790, Амурская обл, Прогресс пос., Ленинградская ул, дом № 33;Пн-Чт (09:00-18:00), Сб (09:00-18:00);49,74363;129,67641
GB12;ЕК Серов2;"624992, Свердловская обл, Серов г, Ленина ул, дом № 128 ТЦ ""Тайга""";Пн-Вс (09:00-20:00);59,604721;60,570755
GD78;Члб Озерск;456783, Челябинская обл, Озерск г, Космонавтов ул, дом № 15;Пн-Вс (10:00-20:00);55,771255;60,717498
GD15;Члб Башня;454071, Челябинская обл, Челябинск г, Салютная ул, дом № 27;Пн-Вс (10:00-21:00);55,169793;61,443714
YP76;СПб Колпино ТК Ока;196655, Санкт-Петербург г, Колпино г, Октябрьская ул, дом № 8;Пн-Вс (10:00-21:00);59,738991;30,622871
LA22;РТ Алатырь Fugi Film;429826, Чувашская Респ, Алатырь г, Комиссариатская ул, дом № 42  помещение 2;Пн-Пт (09:00-18:00);54,840284;46,590748
GM28;КЧР Черкесск ТЦ Панорама;369000, Карачаево-Черкесская Респ, Черкесск г, Кавказская ул, дом № 37 ТЦ Панорама;Пн-Вс (10:00-21:00);44,231637;42,058659
GC32;Тмн Стар Сити Мол;625007, Тюменская обл, Тюмень г, Тобольский тракт ТЦ стар Сити Молл;Пн-Вс (10:00-22:00);56,834608;60,682455
GN56;Ствр Пятигорск Кирова;357500, Ставропольский край, Пятигорск г, Кирова пр-кт, дом № 36/ ул. Дзержинского, 42;Пн-Чт (09:00-19:00), Вс (09:00-19:00);44,036596;43,074902
GB76;Пермь Кудымкар2;619000, Пермский край, Кудымкар г, Лихачева ул, дом № 55 В павильон;Пн-Вс (09:00-19:00);59,015696;54,66332
LB73;РТ Орск - ДК Нефтехимиков2;462404, Оренбургская обл, Орск г, Ленина пр-кт, дом № 43;Пн-Ср (10:00-18:00), Пт-Сб (10:00-18:00);51,203617;58,56723
LS44;НСиб Голден Парк;630129, Новосибирская обл, Новосибирск г, Курчатова ул, дом № 1 ТЦ Голден Парк;Пн-Вс (10:00-21:00);55,104251;82,960715
ML54;ТЦ Ново-Переделкино ЕС;119634, Москва г, Боровское шоссе 51стр.1;Пн-Вс (09:00-21:00);55,6366;37,35223
RH51;Орел ТЦ Атолл ЕС;302028, Орел г, Октябрьская ул 27;Пн-Вс (10:00-21:00);52,97232;36,05395
X630;Якутия Борогонцы1 ЕС;678350, Борогонцы с, Ленина 38;Пн-Пт (10:00-17:30);62,6713;131,15902
P693;СРТ Аткарск3 ЕС;412420, Аткарск г, Гагарина 101А;Пн-Вс (08:00-20:00);51,87046;44,99509
U843;ЕК Красноуфимск2 ЕС;623300, Красноуфимск г, Рогозинниковых ул 35;Пн-Вс (09:00-19:00);56,61604;57,77255
LR82;Крск Алпи Тельмана;660111, Красноярский край, Красноярск г, Тельмана ул, дом № 30, корпус Г;Пн-Вс (10:00-20:00);56,05346;92,972064
GB87;Пермь Очер;617141, Пермский край, Очерский р-н, Очер г, Ленина ул, дом № 46/14;Пн-Вс (09:00-19:00);57,884994;54,715906
LP24;Якутия Верхневилюйск;678230, Саха /Якутия/ Респ, Верхневилюйский у, Верхневилюйск с, Карла Маркса ул, дом № 21 Б;Пн-Вс (09:00-19:00);63,44865;120,323422
L155;ТЦ Город2;109052, Москва г, Рязанский пр-кт, дом № 2, корпус 2;Пн-Вс (10:00-22:00);55,729836;37,73101
N257;Нсиб Станиславского ЕС;630054, Новосибирск г, Станиславского пл 17;Пн (10:00-20:00), Чт-Вс (10:00-20:00);54,98191;82,87296
N054;Крск ТЦ Планета3 ЕС;660125, Красноярск г, 9 Мая 77;Пн-Вс (10:00-22:00);56,0509;92,90438
YO87;Карел ТРК Лотос Плаза;185014, Карелия Респ, Петрозаводск г, Лесной пр-кт, дом № 47а ТРК Лотос Плаза;Пн-Вс (10:00-22:00);61,77615;34,308473
S624;Калин Балтийск Нептун ЕС;238520, Балтийск г, Ленина пр-кт 65;Пн-Вс (09:00-20:00);54,65453;19,9107
UR65;Пермь Кизел2 ЕС;618350, Пермский край., Кизел г, Советсткая ул, д.28;Пн-Вс (09:30-19:00);59,048717;57,655312
S974;СПб Приозерск Ленина ЕС;188760, Приозерск г, Ленина ул 30;Пн-Вс (09:00-21:00);61,03851;30,1231
RH66;Курск ТРЦ МегаГрин ЕС;305029, Курск г, К.Маркса ул 68;Пн-Вс (10:00-22:00);51,76213;36,18455
L518;ТЦ Золотой Вавилон Отрадное;127562, Москва г, Декабристов ул, дом № 12 ТЦ Золотой Вавилон;Пн-Вс (10:00-22:00);55,86771;37,593699
LT51;Бур Улан-Удэ Туполева2;670050, Бурятия Респ, Улан-Удэ г, Туполева ул, дом № 9;Вт-Ср (10:00-20:00), Пт-Вс (10:00-20:00);51,864651;107,744016
ND14;Хкс Черногорск Юбилейная2 ЕС;655158, Черногорск г, Юбилейная ул 24 А;Пн (10:00-20:00), Чт-Вс (10:00-20:00);53,8282;91,3347
L545;Электрозаводская ТЦ Заря;107023, Москва г, Семеновская Б ул, дом № 20 ТЦ Заря;Пн-Вс (09:00-22:00);55,781623;37,705333
GA86;ЕК ОКЕЙ Бабушкина;620017, Свердловская обл, Екатеринбург г, Бабушкина ул, дом № 2 ТЦ ОКЕЙ;Пн-Вс (10:00-20:00);56,882047;60,630523
GC22;Тмн ОКЕЙ;625000, Тюменская обл, Тюмень г, Широтная ул, дом № 199 ТЦ О'КЕЙ;Пн-Вс (10:00-22:00);57,096457;65,624744
GA48;ЕК Качканар2;624351, Свердловская обл, Качканар г, Свердлова ул, дом № 7 г;Пн-Вс (10:00-19:00);58,704551;59,479138
GN90;Крнд Сочи Море Молл;354068, Краснодарский край, Сочи г, Новая Заря ул, дом № 7;Пн-Вс (10:00-22:00);43,605987;39,73256
GM29;КЧР Черкесск ТЦ Россия;369000, Карачаево-Черкесская Респ, Черкесск г, Ленина пр-кт, дом № 25;Пн-Вс (10:00-21:00);44,224252;42,047278
S643;Карел Кемь ЕС;186615, Кемь г, пр. Пролетарский 41;Пн-Вс (09:00-20:00);64,95481;34,59473
P451;РТ Стерлитамак ТЦ Фабри2 ЕС;453117, Стерлитамак г, Худайбердина ул 120;Пн-Вс (10:00-22:00);53,62821;55,94014
GL91;Крнд Адлер ТЦ Новый век2;354340, Краснодарский край, Сочи г, Демократическая ул, дом № 52 ТЦ Новый Век;Пн-Вс (10:00-21:00);43,426449;39,927617
GM66;РнД Золотой Вавилон;344000, Ростовская обл, Ростов-на-Дону г, Малиновского ул, дом № 25;Пн-Вс (10:00-22:00);47,230727;39,610553
YB55;Курск27;305000, Курская обл, Курск г, Дружбы пр-кт, дом № 9а;Пн-Вс (09:00-21:00);51,742475;36,133532
GB06;ЕК Ревда3;623280, Свердловская обл, Ревда г, Цветников ул, дом № 39 А ТЦ Квартал;Пн-Вс (10:00-20:00);56,796917;59,916354
YC41;Покров2;601122, Владимирская обл, Петушинский р-н, Покров г, Ленина ул, дом № 47;Пн-Вс (09:00-19:00);55,918422;39,183582
YB57;Курск31;305040, Курская обл, Курск г, Студенческая ул, дом № 1;Пн-Вс (10:00-22:00);51,741726;36,145697
YO86;Карел Сортавала;186790, Карелия Респ, Сортавала г, Кирова ул, дом № 6;Пн-Вс (09:00-20:00);61,702553;30,694039
L087;Павелецкая4;115054, Москва г, Павелецкая пл, дом № 2 стр 3;Пн-Вс (09:00-22:00);55,730424;37,634836
LZ33;Якутия Сунтар;678290, Саха /Якутия/ Респ, Сунтарский у, Сунтар с, Октябрьская ул, дом № 57,корпус 2;Пн-Сб (09:00-18:00);62,157292;117,650025
SD07;Вновг Боровичи Коммунарная ЕС;174411, Боровичи г, Коммунарная ул 51;Пн-Вс (09:00-19:00);58,38972;33,91072
GO76;Адг Адыгейск;385200, Адыгея Респ, Адыгейск г, Ленина ул, дом № 2, корпус В;Пн-Вс (08:00-20:00);44,8793;39,1865
K104;Крнд Геленджик Островского2 ЕС;353460, Геленджик г, Островского ул 15;Пн-Вс (09:00-19:00);44,56128;38,08033
MV78;ТРЦ Европейский3 ЕС;121059, Москва г, Киевского вокзала пл 2;Пн-Чт (10:00-22:00), Пт-Сб (10:00-23:00), Вс (10:00-22:00);55,74463;37,56607
L194;Фрунзенская;119146, Москва г, Комсомольский пр-кт, дом № 24, строение 1;Пн-Вс (10:00-22:00);55,727984;37,580585
LP36;Хаб Вяземский вокзал;682950, Хабаровский край, Вяземский р-н, Вяземский г, Коммунистическая ул, дом № 3в;Пн-Вс (09:00-20:00);47,536214;134,75393
LT20;Збк Агинское2;687000, Забайкальский край, Агинский р-н, Агинское пгт, Ленина ул, дом № 62;Пн-Вс (09:00-20:00);51,106684;114,54503
GE03;Члб Фокус;454021, Челябинская обл, Челябинск г, Молдавская ул, дом № 16 ТЦ;Пн-Вс (10:00-22:00);55,19079;61,302837
GD68;Члб Миасс5;456300, Челябинская обл, Миасс г, Автозаводцев пр-кт, дом № 65 ТРК Слон;Пн-Вс (10:00-21:00);55,046505;60,110025
LD05;РТ Шумерля Ленина;429120, Чувашская Респ, Шумерля г, Ленина ул, дом № 6;Пн-Вс (09:00-18:00);55,498989;46,413855
GD38;Члб Киномакс2;454091, Челябинская обл, Челябинск г, Воровского ул, дом № 6 ТЦ Урал;Пн-Вс (10:00-22:00);55,157513;61,394768
L238;Голицыно3;143040, Московская обл, Одинцовский р-н, Голицыно г, Звенигородское ш, дом № 2 а строение 1;Пн-Вс (09:00-21:00);55,610802;37,003261
GL80;КБР Прохладный2;361045, Кабардино-Балкарская Респ, Прохладненский р-н, Прохладный г, Пролетарская ул, дом № 58;Пн (08:00-18:00), Ср (08:00-18:00), Пт-Вс (08:00-18:00);43,762818;44,006576
YC32;Острогожск2;397853, Воронежская обл, Острогожский р-н, Острогожск г, Крамского ул, дом № 1;Пн-Вс (08:00-18:00);50,859618;39,079006
R754;Новомосковск ТРЦ Первый ЕС;301664, Новомосковск г, Трудовые резервы ул 33Б;Пн-Вс (10:00-21:00);54,01601;38,28619
LQ33;Бур Улан-Удэ Эрдем2;670000, Бурятия Респ, Улан-Удэ г, Ленина ул, дом № 27;Пн-Вс (10:00-20:00);51,827244;107,583839
S828;Мрмск Кола ЕС;184381, Кола г, пр.Советский 40;Пн-Пт (10:00-19:00);68,87988;33,02279
LA64;РТ Елабуга Нефтяников;423600, Татарстан Респ, Елабужский р-н, Елабуга г, Нефтяников пр-кт, дом № 17;Пн-Вс (09:00-19:00);55,751704;52,015978
LT09;Тыва Кызыл Тувинская;667000, Тыва Респ, Кызыл г, Тувинских Добровольцев ул, дом № 19;Пн-Вс (09:00-21:00);51,719085;94,441869
GD05;ХМАО Ханты-Мансийск3;628001, Ханты-Мансийский Автономный округ - Югра АО, Ханты-Мансийск г, Заводская ул, дом № 24 ТЦ Меридиан;Пн-Вс (09:00-19:40);60,96705;69,039224
YO20;СКТ ТЦ Июнь;167000, Коми Респ, Сыктывкар г, Октябрьский пр-кт, дом № 131/3 ТЦ Июнь;Пн-Вс (10:00-22:00);61,690613;50,803182
YP58;СПб Заневский каскад3;195112, Санкт-Петербург г, Заневский пр-кт, дом № 67, корпус 2, литера В ТК Заневский Каскад;Пн-Вс (10:00-21:00);59,932924;30,437674
LS84;Омск ОКЕЙ;644000, Омская обл, Омск г, Энтузиастов ул, дом № 2, корпус 1;Пн-Вс (10:00-21:00);55,048385;73,29149
L332;Люберцы13;140006, Московская обл, Люберецкий р-н, Люберцы г, Октябрьский пр-кт, дом № 366 ТРЦ Орбита;Пн-Вс (10:00-22:00);55,663156;37,910585
GM18;Крнд Усть-Лабинск3;352330, Краснодарский край, Усть-Лабинский р-н, Усть-Лабинск г, Ободовского ул, дом № 27 литер к ул. Ободовского, 27, лит К;Пн-Вс (08:00-20:00);45,21512;39,690795
YA78;Вязьма4;215110, Смоленская обл, Вяземский р-н, Вязьма г, 25 Октября ул, дом № 4;Пн-Вс (09:00-20:00);55,205123;34,298114
GL81;Крнд 40 лет Победы;350072, Краснодарский край, Краснодар г, 40 лет Победы ул, дом № 81;Пн-Вс (09:00-21:00);45,055938;39,022223
R874;Кувшиново ЕС;172110, Тверская область, г. Кувшиново, Октябрьская ул., д. 28Б;Пн-Вт (09:00-19:00), Чт-Сб (09:00-19:00);57,030421;34,172021
GN52;Ствр Новоалександровск;356000, Ставропольский край, Новоалександровский р-н, Новоалександровск г, Маршала Жукова ул, дом № 1;Пн-Вс (08:00-20:00);45,489842;41,20783
YD10;Тверь17;170039, Тверская обл, Тверь г, Паши Савельевой ул, дом № 27, корпус 1;Пн-Вс (09:00-20:00);56,882569;35,841474
MX10;ТЦ Будапешт ЕС;109457, Москва г, Зеленодольская ул 40;Пн-Вс (10:00-22:00);55,70413;37,76576
GL73;КБР Нальчик Галерея;360003, Кабардино-Балкарская Респ, Нальчик г, Кирова ул, дом № 1 Д ТЦ Галерея;Пн-Вс (10:00-21:00);43,476302;43,573843
RE32;Обоянь3 ЕС;306230, Обоянь г, Ленина ул 34;Пн-Вс (09:00-19:00);51,2103;36,26995
P734;ПНЗ Плеханова ЕС;440000, Пенза г, Плеханова ул 19;Пн-Вс (09:00-21:00);53,20027;45,01209
MV44;Домодедово ТЦ Торговый Квартал ЕС;142000, Домодедово г, Каширское шоссе, строение 3А;Пн-Вс (10:00-22:00);55,45178;37,76312
YP64;СПб Каменноостровский проспект;197022, Санкт-Петербург г, Каменноостровский пр-кт, дом № 42, литера А;Пн-Вс (10:00-22:00);59,966729;30,309375
GB50;Крг Щучье;"641010, Курганская обл, Щучанский р-н, Щучье г, Советская ул, между торговым павильоном ""Евросеть"" и зданием №3 по ул.Победы между торговым павильоном ""Евросеть"" и зданием № 3 по пл. Победы";Пн-Чт (09:00-18:00), Вс (09:00-18:00);55,209487;62,751281
GM31;Кчр Черкесск4;369000, Карачаево-Черкесская Респ, Черкесск г, Ленина пр-кт, дом № 73, литера А;Пн-Вс (09:00-21:00);44,218849;42,045899
YC53;Ростов Великий3;152151, Ярославская обл, Ростовский р-н, Ростов г, Советский пер, дом № 3/2, помещение 1-5;Пн (09:00-18:00), Ср-Чт (09:00-18:00), Сб-Вс (09:00-18:00);57,185981;39,416054
UR33;Крг ТЦ РИО ЕС;640003, Курган г, Невежина ул 3;Пн-Вс (10:00-21:00);55,42835;65,29806
GD03;ХМАО Ханты-Мансийск Nebo;628011, Ханты-Мансийский Автономный округ - Югра АО, Ханты-Мансийск г, Мира ул, дом № 45;Пн-Вс (10:00-21:00);61,006441;69,040443
LQ39;Збк Могойтуй;687420, Забайкальский край, Могойтуйский р-н, Могойтуй пгт, Юбилейная ул, дом № 3а;Пн-Вс (09:00-19:00);51,285272;114,927493
LA45;РТ Бузулук ТРЦ Север;461040, Оренбургская обл, Бузулук г, Комсомольская ул, дом № 81 ТРЦ Север;Пн-Вс (10:00-22:00);52,788089;52,263904
R589;Кашин2 ЕС;171640, Кашин г, Луначарского ул 16/2;Пн-Вс (09:00-19:00);57,36047;37,6085
P125;РТ Стерлитамак ТЦ Сити Молл ЕС;Стерлитамак г, Артема ул/Октября пр-т/Строителе 38;Пн-Вс (10:00-21:00);53,63129;55,89982
LQ25;Бур Улан-Удэ Автомобилистов;670045, Бурятия Респ, Улан-Удэ г, Автомобилистов пр-кт, дом № 1;Пн-Вс (09:00-21:00);51,839025;107,65177
YO63;Вновг Пестово;174510, Новгородская обл, Пестовский р-н, Пестово г, Советская ул, дом № 3;Пн-Вс (09:00-20:00);58,600671;35,798551
GC28;Тмн Привоз;625035, Тюменская обл, Тюмень г, Республики ул, дом № 200а, строение 1;Пн-Пт (10:00-18:00);57,125952;65,593175
GD64;Члб Магнитогорск9;455001, Челябинская обл, Магнитогорск г, Герцена ул, дом № 6 Многофункциональный ТРК ДжазМолл;Пн-Вс (10:00-20:00);53,430423;58,973215
LP07;Анадырь Отке;689000, Чукотский АО, Анадырь г, Отке ул, дом № 22 А;Пн-Вс (09:00-20:00);64,735236;177,512807
P446;РТ Верхнеяркеево ЕС;452260, Верхнеяркеево с, Коммунистическая ул 23/1;Пн-Вс (09:00-20:00);55,44648;54,31505
GA23;ЕК Березовский;623701, Свердловская обл, Березовский г, Анучина ул, дом № 3;Пн-Вс (10:00-20:00);56,908647;60,81895
LC59;РТ Ульяновск Рябикова;432054, Ульяновская обл, Ульяновск г, Рябикова ул, дом № 70;Пн-Вс (09:00-21:00);54,277311;48,290167
YB54;Курск24;305048, Курская обл, Курск г, Хрущева пр-кт, дом № 5 а;Пн-Вс (09:00-21:00);51,733847;36,138926
L504;Ашан Белая Дача;140055, Московская обл, Котельники г, 1-й Покровский проезд, дом № 5;Пн-Вс (09:00-22:00);55,663376;37,856449
GE15;ЯНАО Новый Уренгой Коротчаево;629320, Ямало-Ненецкий АО, Новый Уренгой г, Коротчаево жилрайон, Бамовская ул, дом № 2 ТЦ Октябрьск;Пн-Вс (09:00-21:00);65,912788;78,215467
GA41;ЕК Каменск-Уральский6;623428, Свердловская обл, Каменск-Уральский г, Победы пр-кт, дом № 11а ТЦ Октябрьский;Пн-Вс (10:00-20:00);56,419608;61,918478
GN43;Ствр Ипатово;356630, Ставропольский край, Ипатовский р-н, Ипатово г, Гагарина ул, дом № 102 Б;Пн-Вс (08:00-19:00);45,712328;42,913473
GE23;ЯНАО Новый Уренгой;629300, Ямало-Ненецкий АО, Новый Уренгой г, Имени Подшибякина ВТ ул, дом № 1, корпус 2а;Пн-Вс (10:00-22:00);66,11462;76,6725
RG44;Воронеж Университет МИРФ ЕС;394033, Воронеж г, Ленинский пр-т 174;Пн-Вс (10:00-22:00);51,69795;39,27311
P903;МРД Саранск Косарева ЕС;430000, Республика Мордовия, г. Саранск, Октябрьский район, ул.Косарева, торговый павильон №10;Пн-Пт (09:00-18:00);54,19339;45,23769
KI26;Ствр Новоалександровск Жукова ЕС;356000, Новоалександровск г, Жукова ул 13;Пн-Вс (08:00-20:00);45,48966;41,20749
GC17;Тмн Заводоуковск;627140, Тюменская обл, Заводоуковский р-н, Заводоуковск г, Вокзальная ул, дом № 45А;Пн-Вс (09:00-19:00);56,512459;66,539695
R367;Узловая ТЦ Дом Торговли ЕС;301600, Узловая г, Октябрьская ул 6;Пн-Вс (10:00-20:00);53,97578;38,15956
R444;Ельня ЕС;216330, Ельня г, Первомайская ул 27;Пн-Вс (08:30-19:30);54,57698;33,18135
GO91;Крнд Туапсе6;352800, Краснодарский край, Туапсинский р-н, Туапсе г, Карла Маркса ул, дом № 20;Пн-Вс (09:00-21:00);44,09911;39,07913
KG64;Ствр Буденновск Октябрьская ЕС;356800, Буденновск г, Октябрьская ул 79;Пн-Вс (08:00-20:00);44,78241;44,15615
GC76;ХМАО Нижневартовск6;"628600, Ханты-Мансийский АО, Нижневартовск г, Чапаева ул, дом № 27 МФК ""Европа-сити""";Пн-Вс (10:00-22:00);60,939666;76,597494
MJ46;Люберцы ТЦ Светофор2 ЕС;140013, Люберцы г, Побратимов ул 7;Пн-Вс (10:00-22:00);55,69162;37,89683
LB05;РТ Казань ТЦ Горки Парк;420087, Татарстан Респ, Казань г, Рихарда Зорге ул, дом № 11, корпус Б ТЦ Горки Парк;Пн-Вс (10:00-22:00);55,764468;49,185959
KI08;ЧР Грозный Лорсанова2 ЕС;364902, Грозный г, Лорсанова ул 1А;Пн-Вс (09:00-19:00);43,32461;45,68627
GL06;Крнд Сочи Светлана3;354002, Краснодарский край, Сочи г, Учительская ул, дом № 6;Пн-Вс (09:00-21:00);43,572387;39,736272
GC93;ХМАО Сургут Союз;628403, Ханты-Мансийский АО, Сургут г, 30 лет Победы ул, дом № 46;Пн-Вс (10:00-22:00);61,253954;73,433355
LC92;РТ Цивильск;"429900, Чувашская Республика - Чувашия, Цивильский р-н, Цивильск г, Николаева ул, остановка ""Гостиница"" дом №2 ""а""";Пн (08:00-19:00), Ср-Сб (08:00-19:00);55,863608;47,46669
L453;ТЦ Цитрус;141400, Московская обл, Химки г, Московская ул, строение № 14А;Пн-Вс (10:00-22:00);55,894134;37,450449
LQ80;Ирк Куйтун;665302, Иркутская обл, Куйтунский р-н, Куйтун рп, Карла Маркса ул, дом № 2в;Пн-Вс (09:00-19:00);54,353386;101,521273
L259;Дрезна;142660, Московская обл, Орехово-Зуевский р-н, Дрезна г, Юбилейная ул, дом № 5 А;Пн-Вт (09:00-18:00), Чт-Сб (09:00-18:00);55,740213;38,843331
NE69;Алтай Рубцовск ТЦ Радуга2 ЕС;658201, Рубцовск г, Тракторная ул 17;Пн-Вс (09:00-21:00);51,53486;81,21404
KD43;РСО Владикавказ Джанаева2 ЕС;362040, Владикавказ г, Маркуса/Джанаева 21/32;Пн-Вс (09:00-21:00);43,03285;44,6836
N795;Омск ТЦ Континент ЕС;644074, Омск г, 70 лет Октября ул 25, корп 1;Пн-Вс (10:00-21:00);54,97644;73,32671
P074;РТ Кошки ЕС;446800, Кошки с, 60 лет Октября ул 42А;Пн-Вс (09:00-19:00);54,20441;50,46684
U564;ЕК Михайловск1 ЕС;623080, Михайловск г, Кирова ул 46;Пн-Вс (10:00-20:00);56,43717;59,12118
GA50;ЕК Кит3;620016, Свердловская обл, Екатеринбург г, Амундсена ул, дом № 65, литера А ТЦ Кит;Пн-Вс (10:00-21:00);56,79563;60,580129
GA71;ЕК Нижний Тагил10;622000, Свердловская обл, Нижний Тагил г, Черноисточинское ш, дом № 49, литера А ТЦ Кит;Пн-Вс (10:00-21:00);57,869648;59,942538
UE18;Тмн Голышманово2 ЕС;627320, Голышманово рп, Ленина ул 11;Пн-Вт (09:15-17:00), Чт-Сб (09:15-17:00);56,39246;68,37742
S303;СПб ТК Норд2 ЕС;194355, Санкт-Петербург г, Просвещения пр-кт 19;Пн-Вс (10:00-22:00);60,05218;30,33314
X419;Амур Благовещенск ТЦ От и До ЕС;675000, Благовещенск г, Институтская ул 1;Пн (09:00-20:00), Чт-Вс (09:00-20:00);50,29946;127,5279
LE73;НН ТЦ Республика;603002, Нижегородская обл, Нижний Новгород г, Революции пл, дом № 9;Пн-Вс (09:00-21:00);56,320635;43,947701
GL65;Влд ТРЦ Акварель;400000, Волгоградская обл, Волгоград г, Университетский пр-кт, дом № 107;Пн-Вс (10:00-22:00);48,636747;44,436205
GN31;СО Владикавказ Цум;362008, Северная Осетия - Алания Респ, Владикавказ г, Генерала Плиева ул, дом № 17;Пн-Вс (09:00-20:45);43,019324;44,677247
YR34;СПб ОКЕЙ Таллинский;188508, Ленинградская обл, Ломоносовский р-н, Виллози д, Таллинское ш (общественно-торговая зона), дом № 27 ТЦ ОКЕЙ, поещение. № 36;Пн-Вс (10:00-21:00);59,796026;30,146976
YB80;Льгов;307750, Курская обл, Льгов г, К.Маркса ул, дом № 2/4;Пн-Вс (09:00-19:00);51,685497;35,277798
GE05;Члб Чебаркуль2;456440, Челябинская обл, Чебаркуль г, Ленина ул, дом № 21;Пн-Вс (09:00-19:00);54,977389;60,366271
L280;Ивантеевка3;141280, Московская обл, Ивантеевка г, Советский пр-кт, дом № 2А;Пн-Вс (10:00-22:00);55,974682;37,906945
LT04;Тыва Кызыл Добровольцев2;667000, Тыва Респ, Кызыл г, Тувинских Добровольцев ул, дом № 26;Пн-Вс (08:00-20:00);51,717288;94,441788
MR94;Сходня2 ЕС;Сходня г, Первомайская ул 2;Пн-Вс (09:00-21:00);55,94999;37,30021
YD61;Ярцево2;215805, Смоленская обл, Ярцевский р-н, Ярцево г, Металлургов пр-кт, дом № 21Г;Пн-Вс (09:00-20:00);55,048353;32,726488
GB96;Пермь Союз;614113, Пермский край, Пермь г, Автозаводская ул, дом № 44;Пн-Вс (09:00-21:00);58,007233;55,950712
YD58;Ярославль29;150000, Ярославская обл, Ярославль г, Победы ул, дом № 41 ТРЦ Аура;Пн-Вс (10:00-22:00);57,627228;39,871903
YB48;Курск ТЦ Европа2;"305004, Курская обл, Курск г, Карла Маркса ул, дом № 6 Курск ""ТЦ Европа""";Пн-Вс (10:00-22:00);51,750712;36,192093
LT45;Крск Енисейск2;663180, Красноярский край, Енисейск г, Рабоче-Крестьянская ул, дом № 93;Пн-Вс (09:00-19:00);58,452985;92,17243
R675;Калуга ТЦ XXI век ЕС;248001, Калуга г, Кирова ул 1;Пн-Вс (10:00-21:00);54,51592;36,24659
RF21;Калач2 ЕС;397600, Воронежская область,  Калач г, Колхозного рынка пл 44;Пн-Вс (08:45-18:00);50,427;41,02892
GB62;Пермь Горнозаводск;618820, Пермский край, Горнозаводский р-н, Горнозаводск г, Свердлова ул, дом № 62;Пн (09:00-18:00), Ср (09:00-18:00), Пт-Вс (09:00-18:00);58,37415;58,331461
L516;Мытищи ТЦ Красный Кит3;"141006, Московская обл, Мытищинский р-н, Мытищи г, Шараповский проезд, владение № 2 ТЦ ""Красный Кит""";Пн-Вс (10:00-22:00);55,916403;37,759034
KI88;Астр Лиман ЕС;416410, Астраханская область, п.г.т. Лиман, ул. Ленина, 56А;Пн-Вс (08:00-19:00);45,77995;47,22207
W569;РТ Казань Зорге ЕС;420138, Казань г, Р.Зорге ул 66;Пн-Вс (10:00-22:00);55,74796;49,21043
MW49;Лобня9 ЕС;Лобня г, Маяковского ул 1Б;Пн-Вс (09:00-19:00);56,01268;37,48387
MH75;Наро-Фоминск ТЦ Серпантин ЕС;143306, Наро-Фоминск г, Ленина 8;Пн-Вс (09:00-22:00);55,38312;36,72809
LT50;Бур Улан-Удэ 50 лет Октября;670034, Бурятия Респ, Улан-Удэ г, 50-летия Октября пр-кт, дом № 8;Пн-Вс (10:00-20:00);51,836729;107,595048
GA36;ЕК Ирбит2;623856, Свердловская обл, Ирбит г, 50 лет Октября ул, дом № 23 ТЦ;Пн-Вс (09:00-20:00);57,674091;63,066954
MX83;XL-4 ЕС;127486, Москва г, Дмитровское ш 89;Пн-Вс (10:00-22:00);55,86375;37,54467
YA60;Воронеж36;394000, Воронежская обл, Воронеж г, Гк Жилая Зона тер, Героев Сибиряков ул, дом № 65, корпус а;Пн-Вс (09:00-21:00);51,646008;39,13914
R089;Ярцево3 ЕС;215800, Ярцево г, Советская ул 12В;Пн-Вс (09:00-19:00);55,06796;32,68906
LQ24;Бур Таксимо;671560, Бурятия Респ, Муйский р-н, Таксимо пгт, 70 лет Октября ул, дом № 46а;Пн-Вс (09:00-19:00);56,361062;114,835372
KD20;КБР Нальчик Толстого ЕС;360000, Нальчик г, Толстого 96;Пн-Вс (08:00-20:00);43,48883;43,60734
YO45;Архск Няндома;164200, Архангельская обл, Няндомский р-н, Няндома г, Строителей ул, дом № 14, строение 1 в 13 метрах, северо-восточнее;Пн-Вс (09:00-20:00);61,658102;40,199314
X437;Амур Архара Ленина1 ЕС;676740, Архара пгт, Ленина ул 105;Пн-Вс (09:00-19:00);49,42131;130,08388
P762;ПНЗ Кузнецк ТЦ Гулливер2 ЕС;442500, Кузнецк г, Белинского ул 82Б;Пн-Вс (09:00-21:00);53,11744;46,58807
RH01;Чернянка ЕС;Чернянка п, Октябрьская пл 11;Пн-Вс (09:00-18:00);50,94284;37,80441
K153;КЧР Черкесск Ленина2 ЕС;369394, Черкесск г, Ленина ул 73;Пн-Вс (09:00-21:00);44,21878;42,0459
LP02;Якутия Алдан Центр;678900, Саха /Якутия/ Респ, Алданский у, Алдан г, 10 лет Якутии ул, дом № 9;Пн-Пт (09:00-20:00);58,612355;125,389667
LR09;Ирк Усть-Илимск Дружбы Народов 2;666682, Иркутская обл, Усть-Илимск г, Мира пр-кт, дом № 41б;Пн-Вс (10:00-19:40);57,942427;102,734604
K683;Крнд Тимашевск Красная ЕС;352700, Тимашевск г, Красная ул 107 / Братская ул 158;Пн-Вс (08:00-20:00);45,61181;38,93347
N482;Крск Дудинка Островского2 ЕС;647000, Дудинка г, Островского ул 16;Пн-Ср (12:00-19:00), Пт-Сб (12:00-19:00);69,40834;86,18166
L554;Балашиха ТЦ Светофор2;143900, Московская обл, Балашиха г, Энтузиастов ш, дом № 1Б ТЦ Светофор;Пн-Вс (10:00-22:00);55,794274;37,926578
N952;Нсиб ТЦ Сан СИТИ2 ЕС;630064, Новосибирск г, Карла Маркса пл 7;Пн-Вс (10:00-22:00);54,9804;82,89817
L142;ТРЦ Мозаика;115193, Москва г, Кожуховская 7-я ул, дом № 9;Пн-Вс (10:00-22:00);55,710655;37,675435
N144;Алтай Барнаул ТЦ Огни2 ЕС;656054, Барнаул г, Антона Петрова ул 219Б;Пн-Вс (10:00-22:00);53,35949;83,6985
LP96;Хабаровск 60 лет Октября;"680014, Хабаровский край, Хабаровск г, 60-летия Октября пр-кт, остановка городского транспорта ""Южнопортовая""";Вт-Сб (10:00-20:00);48,470668;135,118474
L386;Павловский Посад5;142500, Московская обл, Павлово-Посадский р-н, Павловский Посад г, Привокзальная ул, дом № 19;Вт-Чт (09:00-18:00), Сб-Вс (09:00-18:00);55,776893;38,675739
GC35;Тмн Тобольск Жемчужина;626157, Тюменская обл, Тобольск г, 7-й мкр, дом № 30 ТЦ Жемчужина Сибири;Пн-Вс (10:00-22:00);58,231145;68,270812
GC43;Тмн Ялуторовск Ретро;627010, Тюменская обл, Ялуторовский р-н, Ялуторовск г, Ленина ул, дом № 17, строение 2 ТЦ Ретро;Пн-Вс (09:00-19:00);56,6527;66,316194
L301;Королев8;141075, Московская обл, Королев г, Космонавтов пр-кт, у дома 20/35;Пн-Вс (10:00-21:00);55,914323;37,865757
YB26;Киржач;601010, Владимирская обл, Киржач г, Гагарина ул, дом № 28;Пн-Вс (09:00-18:00);56,161779;38,873498
GE11;ЯНАО Вынгапуровский;629828, Ямало-Ненецкий АО, Ноябрьск г, Вынгапуровский мкр, Ленина ул, дом № 16;Пн-Пт (10:00-20:00);62,981856;76,99887
YC93;Суджа;307800, Курская обл, Суджанский р-н, Суджа г, Привокзальная площадь;Пн-Вс (09:00-19:00);51,205436;35,309668
L112;Рязанский проспект5;109377, Москва г, Рязанский пр-кт, дом № 46, строение 1 1 этаж и подвал, помещения на плане БТИ 1, 1а, 2, 3, 4;Пн-Вс (09:00-22:00);55,717345;37,791929
GN61;Крнд Новомихайловский2;352855, Краснодарский край, Туапсинский р-н, Новомихайловский пгт, Мира ул, дом № 76;Пн-Вс (08:00-20:00);44,253581;38,846729
N405;Ирк Шелехов 4 микрорайон2 ЕС;666036, Шелехов г, 4 мкр 9;Пн-Пт (10:00-20:00);52,20939;104,06324
RH38;Лебедянь2 ЕС;399610 Липецкая обл г Лебедянь ул Мира д 7;Пн-Вс (09:00-19:00);53,0107;39,13175
LR52;КО Нкуз Бардина;654041, Кемеровская обл, Новокузнецк г, Бардина пр-кт, дом № 2 пом.№2;Пн-Вс (09:00-21:00);53,747617;87,119807
LQ17;Алтай Барнаул ТЦ Огни;656000, Алтайский край, Барнаул г, Антона Петрова ул, дом № 219, корпус Б;Пн-Вс (10:00-22:00);53,359135;83,697961
GN28;СО Владикавказ Алан;362045, Северная Осетия - Алания Респ, Владикавказ г, Владикавказская ул, дом № 26/4;Пн-Вс (08:00-20:00);43,049395;44,6322
LP20;Амур Благовещенск ТЦ Острова;675000, Амурская обл, Благовещенск г, Мухина ул, дом № 114, помещение 20004;Пн-Вс (10:00-22:00);50,281303;127,512482
GN78;Крнд Полтавская2;353800, Краснодарский край, Красноармейский р-н, Полтавская ст-ца, Интернациональная ул, дом № 176 А;Пн-Вс (09:00-19:00);45,367722;38,208252
YC86;Старица;171361, Тверская обл, Старицкий р-н, Старица г, Володарского ул, дом № 15;Пн (09:00-19:00), Чт-Вс (09:00-19:00);56,515561;34,935196
U301;Крг Куйбышева1 ЕС;640018, Курган г, Куйбышева ул 74д;Пн-Вс (10:00-20:00);55,43866;65,35811
LE71;РТ Чебоксары МТВ2;Чувашская Республика, Чебоксары, проспект Ивана Яковлева, 4Б;Пн-Сб (10:00-21:00), Вс (10:00-20:00);56,101976;47,265874
YD66;Воронеж ТРЦ Московский;"394005, Воронежская обл, Воронеж г, Московский пр-кт, 129/1 ТРЦ ""Московский""";Пн-Вс (10:00-22:00);51,717747;39,177533
L558;Арбат2;119002, Москва г, Арбат ул, дом № 25/36;Пн-Вс (11:00-21:00);55,750099;37,594773
L539;ТЦ Водный3;125130, Москва г, Головинское ш, дом № 5 ТЦ Водный;Пн-Вс (10:00-22:00);55,840245;37,492024
GD51;Члб Магнитогорск ТЦ Континент;455000, Челябинская обл, Магнитогорск г, Ленина пр-кт, дом № 83 ТРК Континент;Пн-Вс (10:00-21:00);53,403343;58,987449
L387;Павловский Посад6;142500, Московская обл, Павлово-Посадский р-н, Павловский Посад г, Большая Покровская ул, дом № 35;Пн-Вс (09:00-21:00);55,771442;38,652049
YA05;Тамбов18 SvStore;392000, Тамбовская обл, Тамбов г, Советская ул, дом № 99а ТРЦ Рио;Пн-Вс (10:00-22:00);52,724243;41,456959
GC11;Тмн Вояж;625000, Тюменская обл, Тюмень г, Герцена ул, дом № 94 ТЦ Галерея Вояж;Пн-Вс (10:00-22:00);57,146333;65,542377
LR46;КО Ленинск-Кузнецкий ТЦ Фабрика;652523, Кемеровская обл, Ленинск-Кузнецкий г, Телефонная ул, дом № 13;Пн-Вс (09:00-20:00);54,708021;86,194746
L318;Лесной городок;143080, Московская обл, Одинцовский р-н, Лесной Городок дп, Школьная ул, дом № 1;Пн-Вс (10:00-20:00);55,632983;37,212303
LP56;Якутия Мирный Ленинградский;678174, Саха /Якутия/ Респ, Мирнинский у, Мирный г, Ленинградский пр-кт, дом № 23, кв.75;Пн (09:00-19:00), Ср-Сб (09:00-19:00);62,539063;113,976773
GA82;ЕК Нижняя Тура;624222, Свердловская обл, Нижняя Тура г, Усошина ул, дом № 8;Пн-Вс (10:00-20:00);58,630479;59,854361
LD25;МРД Зубова Поляна;431110, Мордовия Респ, Зубово-Полянский р-н, Зубова Поляна рп, Советская ул, дом № 1Б;Пн-Вс (09:00-18:00);54,078753;42,844483
YC35;Переславль-Залесский2;152025, Ярославская обл, Переславль-Залесский г, Строителей ул, дом № 41;Пн (09:00-18:00), Чт-Вс (09:00-18:00);56,750385;38,880716
LZ23;Южно-Сахалинск Монерон;"693020, Сахалинская обл, Южно-Сахалинск г, Ленина ул, дом № 180 ТЦ ""Монерон""";Пн-Вс (09:30-20:00);46,962774;142,728459
GB39;Крг Катайск;640000, Курганская обл, Катайский р-н, Катайск г, Ленина ул, дом № 245/1;Пн-Вс (09:00-20:00);56,283657;62,583203
LQ08;Алтай Горно-Алтайск ТЦ Горный;649000, Алтай Респ, Горно-Алтайск г, Коммунистический пр-кт, дом № 109/2;Пн-Вс (09:00-20:00);51,962283;85,912332
GE16;ЯНАО Лабытнанги;"629400, Ямало-Ненецкий АО, Лабытнанги г, Первомайская ул /Гагарина ул (рядом с магазином ""Спектр"") Слева от павильона Спектр";Пн-Вс (09:00-21:00);66,656786;66,381709
R416;Починок ЕС;216450, Починок г, Советская ул 21;Пн-Вс (08:30-19:30);54,40731;32,43404
RF14;Моршанск2 ЕС;393950, Моршанск г, Октябрьская пл 29;Пн-Вс (08:00-19:00);53,44505;41,81288
X085;Хабаровск ТЦ Большая Медведица ЕС;680009, Хабаровск г, Карла-Маркса 91;Пн-Вс (09:00-20:00);48,49742;135,09815
YP53;СПб Девяткино Менделеева;188662, Ленинградская обл, Всеволожский р-н, Мурино п, Менделеева б-р, дом № 1/1;Пн-Вс (09:00-22:00);60,051413;30,437633
KG43;Крнд Сочи Северная ЕС;354000, Сочи г, Северная ул 6;Пн-Вс (09:00-21:00);43,59421;39,72801
W561;РТ Чебоксары Мадагаскар3 ЕС;428029, Чебоксары г, Ленинского Комсомола ул 21А;Пн-Вс (10:00-22:00);56,10761;47,28073
MW89;ТЦ РИО 6 ЕС;119331, Москва г, Вернадского пр-т 86а;Пн-Вс (10:00-22:00);55,66295;37,48136
YO91;Мрмск Заполярный;184430, Мурманская обл, Печенгский р-н, Заполярный г, Юбилейная ул;Пн-Вс (10:00-20:00);69,427873;30,809543
YB83;Малоярославец2;249091, Калужская обл, Малоярославецкий р-н, Малоярославец г, Ленина ул, дом № 2;Пн-Вс (09:00-21:00);55,011464;36,46278
GL45;Влд Камышин5;403873, Волгоградская обл, Камышин г, Пролетарская ул, примерно в 60 метрах по направлению на северо-запад от дома № 101;Пн-Вс (09:00-19:00);50,077329;45,400644
GA18;ЕК Асбест Nebo;624260, Свердловская обл, Асбест г, Ленинградская ул, дом № 26/2 ТЦ Nebo;Пн-Вс (10:00-21:00);57,013317;61,454256
LE51;СРТ ТЦ Оранжевый;410015, Саратовская обл, Саратов г, Им Орджоникидзе Г.К. пл, дом № 1 ТЦ Оранжевый;Пн-Вс (10:00-21:00);51,512161;45,948823
LZ26;Южно-Сахалинск Проспект Победы;693008, Сахалинская обл, Южно-Сахалинск г, Ленина ул, дом № 285;Пн-Вс (09:00-20:00);46,950192;142,731666
GD70;Члб Миасс8;456320, Челябинская обл, Миасс г, Октябрьская ул, дом № 2;Пн-Вт (10:00-20:00), Чт-Сб (10:00-20:00);54,985959;60,102265
GC09;Тмн Ашан;625000, Тюменская обл, Тюмень г, Дмитрия Менделеева ул, дом № 1 ТЦ Ашан;Пн-Пт (10:00-19:00);57,116649;65,551938
YS04;СПб ТЦ Жемчужная Плаза;198206, Санкт-Петербург г, Петергофское ш, дом № 51, литера А ТЦ Жемчужная Плаза;Пн-Вс (10:00-22:00);59,849202;30,144245
R094;Осташков2 ЕС;172730, Осташков г, Загородная ул 2;Пн-Вс (09:00-19:00);57,13987;33,1243
LP59;Прим Находка Ладья;692900, Приморский край, Находка г, Мира пр-кт, дом № 3а;Пн-Пт (10:00-19:00);42,832788;132,894394
L075;Москва Сити Империя;123100, Москва г, Пресненская наб, дом № 6, строение 2 БЦ Империя Тауэр, Москва Сити;Пн-Пт (10:00-19:00);55,748676;37,540196
YA31;Брянск25;241023, Брянская обл, Брянск г, Объездная ул, дом № 30;Пн-Вс (10:00-22:00);53,275746;34,315813
GA07;ЯНАО Новый Уренгой Солнечный;629305, Ямало-Ненецкий АО, Новый Уренгой г, Сибирская ул, дом № 26 Донской мкр, д. № 1;Пн-Вс (10:00-22:00);66,083291;76,630397
YP44;СПб Гатчина ОКЕЙ;188300, Ленинградская обл, Гатчинский р-н, Гатчина г, Ленинградское ш, дом № 12 ТЦ Окей;Пн-Вс (10:00-20:00);59,583589;30,13863
LD08;РТ Янаул Ленина6;452800, Башкортостан Респ, Янаульский р-н, Янаул г, Ленина ул, дом № 6, корпус 2;Пн-Вс (09:00-21:00);56,268211;54,934445
LR45;КО Ленинск-Кузнецкий Пл Победы 2;652500, Кемеровская обл, Ленинск-Кузнецкий г, Кирова пр-кт, дом № 46 Помещение 1;Пн-Ср (09:00-19:00), Пт-Сб (09:00-19:00);54,665932;86,166573
GB58;Пермь Верещагино;"617120, Пермский край, Верещагинский р-н, Верещагино г, Ленина ул, дом № 11 часть помещения магазина ""Маруся"" №1,2, 1 этаж";Пн-Вс (09:00-20:00);58,079913;54,659548
GL79;КБР Прохладный;361041, Кабардино-Балкарская Респ, Прохладный г, Ленина ул (торговый ряд) Торговый ряд;Пн-Вс (09:00-20:00);43,758076;44,007594
K139;КЧР Карачаевск Ленина ЕС;369200, Карачаевск г, Ленина ул 34Г;Пн-Вс (08:00-20:00);43,76969;41,90796
P120;МРД Саранск Гагарина ЕС;430027, Саранск г, Гагарина ул 99a;Пн-Вс (10:00-21:00);54,16601;45,14972
LZ10;Хабаровск ТЦ Горизонт;680000, Хабаровский край, Хабаровск г, Большая ул, дом № 88 ТЦ Горизонт;Вт-Чт (10:00-20:00), Сб-Вс (10:00-20:00);48,505199;135,08548
KD54;Крнд Гулькевичи Комсомольская ЕС;352190, Гулькевичи г, Комсомольская 105;Пн-Вс (08:00-19:00);45,36026;40,69495
N464;Алтай Бийск Васильева2 ЕС;659305, Бийск г, Васильева ул 42;Пн-Вс (09:00-19:00);52,51036;85,14542
N582;Тыва Кызыл Добровольцев4 ЕС;667000, Кызыл г, Тувинских Добровольцев ул 19;Пн-Вс (09:00-20:00);51,71891;94,44194
RG12;Новый Оскол2 ЕС;308000, Белгородская обл. г. Новый Оскол, пл. Революции;Пн-Вс (08:00-19:00);50,76206;37,86469
U664;Пермь ТЦ Столица ЕС;614000, Пермь г, Мира ул 41/1;Пн-Вс (10:00-21:00);57,97735;56,1896
RE31;Щигры2 ЕС;306530, Щигры г, Красная ул 4;Пн-Вс (08:00-19:00);51,87119;36,91812
R023;Владимир ТК Торговые ряды ЕС;600000, Владимир г, Большая Московская ул 19;Пн-Вс (09:00-19:00);56,12829;40,40293
GB45;Крг Пушкинский;640003, Курганская обл, Курган г, Пушкина ул, дом № 25;Пн-Ср (10:00-20:00), Пт-Сб (10:00-20:00);55,432215;65,319094
KI01;ЭЛСТ Элиста4 ЕС;"358000, Элиста г, Ленина ул 239 ""Б""";Пн-Вс (08:00-20:00);46,30809;44,26388
LE42;СРТ Пугачев;413720, Саратовская обл, Пугачев г, МГорького ул, дом № 40;Пн-Вс (08:00-19:00);52,007805;48,810814
P901;МРД Саранск Веселовского ЕС;430000, Саранск г, Веселовского ул 62А;Пн-Вс (09:00-20:00);54,22611;45,13296
N411;Хкс Абакан Шевченко ЕС;655012, Абакан г, Тараса Шевченко ул 62а;Пн-Вс (09:00-20:00);53,72046;91,46064
UR31;Члб Златоуст ТЦ Тарелка ЕС;456209, Златоуст г, Мира пр-т 32/1;Пн-Вс (10:00-20:00);55,12468;59,7002
S025;Калин Черняховск Ленина ЕС;238151, Черняховск г, Ленина ул 16;Ср-Вс (10:00-18:00);54,63489;21,81457
U655;Пермь Березники ТЦ ЦУМ ЕС;618400, Березники г, Пятилетки ул 41;Пн-Вс (10:00-21:00);59,40614;56,80581
L409;Раменское5;140108, Московская обл, Раменский р-н, Раменское г, Советская ул, дом № 16;Пн-Вс (09:00-22:00);55,566486;38,22866
YR24;СПб ОКЕЙ Индустриальный;195298, Санкт-Петербург г, Индустриальный пр-кт, дом № 25, литер А неж. пом. инв. № 49;Пн-Вс (10:00-21:00);59,947129;30,477609
GE02;Члб Фиеста;454138, Челябинская обл, Челябинск г, Молодогвардейцев ул, дом № 7 ТЦ Фиеста;Пн-Вс (10:00-22:00);55,205091;61,32817
LB66;РТ Оренбург - Север;460000, Оренбургская обл, Оренбург г, Дзержинского пр-кт, дом № 23;Пн-Вс (10:00-22:00);51,834135;55,129756
GN77;Крнд Павловская;352040, Краснодарский край, Павловский р-н, Павловская ст-ца, Ленина ул, дом № 24;Пн-Вс (08:00-20:00);46,135969;39,783761
LQ13;Алтай Барнаул Площадь Советов;656049, Алтайский край, Барнаул г, Ленина пр-кт, дом № 51;Пн-Вс (09:00-20:00);53,344739;83,779947
LP53;Магд Грант;685000, Магаданская обл, Магадан г, Гагарина ул, дом № 27 1 этаж магазина;Пн-Вс (09:00-21:00);59,554106;150,810383
GC07;Пермь Чусовой;618200, Пермский край, Чусовой г, Мира ул, дом № 17;Пн-Вс (10:00-20:00);58,269898;57,804091
LR04;Ирк Усолье-Сибирское;665451, Иркутская обл, Усолье-Сибирское г, Интернациональная ул, дом № 40, 62;Пн-Вс (09:00-21:00);52,751621;103,658937
YC03;Новомичуринск;391160, Рязанская обл, Пронский р-н, Новомичуринск г, Энергетиков пр-кт, дом № 41/2;Пн-Пт (09:00-19:00);54,037508;39,751462
GB47;Крг Шадринск2;641870, Курганская обл, Шадринск г, примерно в одиннадцати метрах в восточном направлении от ориентира здание,Комсомольская ул, дом № 17;Пн-Вс (10:00-20:00);56,082694;63,630456
LQ68;Ирк Братск Юнона;665708, Иркутская обл, Братск г, Центральный жилрайон, Кирова ул, дом № 16/30, пом. 1008;Пн-Ср (09:00-21:00), Чт (09:00-19:00), Пт-Сб (09:00-21:00), Вс (09:00-19:00);56,15492;101,623923
LT03;Тыва Кызыл Добровольцев;667000, Тыва Респ, Кызыл г, Тувинских Добровольцев ул, дом № 21;Пн-Вс (08:00-20:00);51,718751;94,441996
L179;ТЦ РИО 2;127204, Москва г, Дмитровское ш, дом № 163а ТЦ РИО;Пн-Вс (10:00-22:00);55,909116;37,539302
GD63;Члб Магнитогорск6;455044, Челябинская обл, Магнитогорск г, Карла Маркса пр-кт, дом № 99;Пн-Вс (10:00-18:00);53,401698;58,978935
LS55;Нсиб ТЦ Зауралье;630112, Новосибирская обл, Новосибирск г, Фрунзе ул, дом № 238 ТЦ Зауралье;Пн-Вс (10:00-22:00);55,03897;82,960728
GD84;Члб Сатка2;456910, Челябинская обл, Саткинский р-н, Сатка г, Индустриальная ул, дом № 1;Пн-Вс (09:00-19:00);55,042045;58,976491
LT21;Збк Борзя;674600, Забайкальский край, Борзинский р-н, Борзя г, Лазо ул, дом № 56;Пн-Вс (09:00-20:00);50,388832;116,524081
LZ27;Южно-Сахалинск Сити Молл;693014, Сахалинская обл, Южно-Сахалинск г, Хомутово п/р, 2-я Центральная ул, дом № 1Б ТЦ Сити Молл;Пн-Вс (10:00-21:00);46,900361;142,742209
GC68;ХМАО Нефтеюганск;628310, Ханты-Мансийский Автономный округ - Югра АО, Нефтеюганск г, 12-й мкр, дом № 29;Пн-Вт (10:00-19:00), Чт-Сб (10:00-19:00);61,100345;72,588827
GE28;ЯНАО Ноябрьск2;"629802, Ямало-Ненецкий АО, Ноябрьск г, Ленина ул, павильоны №5,6, район микрорайона ""И-2""";Пн-Вс (09:00-21:00);63,195945;75,438157
LZ37;Якутск Дзержинского;677000, Саха /Якутия/ Респ, Якутск г, Дзержинского ул, дом № 70;Пн-Вс (09:00-20:00);62,060751;129,742947
GL12;Адг Майкоп СВ3;385000, Адыгея Респ, Майкоп г, Краснооктябрьская ул, дом № 30 Майкоп г, Краснооктябрьская ул, дом № 30/Пролетарская, 233;Пн-Вс (09:00-19:00);44,608713;40,10519
YC71;Сафоново;215500, Смоленская обл, Сафоновский р-н, Сафоново г, Советская ул, дом № 9;Пн-Вс (09:00-20:00);55,109962;33,245124
LP43;Хаб Комсом-на-Амуре Ленина;681013, Хабаровский край, Комсомольск-на-Амуре г, Ленина пр-кт, дом № 32, помещение 1004;Пн-Пт (10:00-20:00);50,550501;137,008135
LR13;Ирк Черемхово;665407, Иркутская обл, Черемхово г, Первомайская ул, дом № 199;Пн-Вс (09:00-21:00);53,170208;103,042063
YO92;Мрмск Кандалакша;184042, Мурманская обл, Кандалакша г, Первомайская ул, дом № 57;Пн-Вс (09:00-20:00);67,152505;32,414415
LS39;Крск Шарыпово;662311, Красноярский край, Шарыпово г, Пионерный мкр, дом № 9;Пн-Вт (09:00-19:00), Чт-Пт (09:00-19:00), Вс (09:00-19:00);55,524753;89,189994
YA92;Дятьково;242600, Брянская обл, Дятьковский р-н, Дятьково г, Ленина ул от Ленина пл;Пн-Вс (09:00-20:00);53,596739;34,338524
LA81;РТ Ижевск Петровский;426068, Удмуртская Респ, Ижевск г, им Петрова ул, дом № 29;Пн-Вс (10:00-22:00);56,871312;53,289642
LS61;НСиб Учительская;630110, Новосибирская обл, Новосибирск г, Богдана Хмельницкого ул, дом № 63А;Пн-Пт (09:00-19:00);55,081777;82,964693
YP77;СПб Колпино ТРК Меркурий;196650, Санкт-Петербург г, Колпино г, Пролетарская ул, дом № 36, Лит. А, ТРК Меркурий;Пн-Вс (10:00-20:00);59,74051;30,583438
YS02;СПб ТЦ Атмосфера;197372, Санкт-Петербург г, Комендантская пл, дом № 1, литер А ТЦ Атмосфера;Пн-Вс (10:00-22:00);60,007772;30,259761
GC40;Тмн ЦУМ;625002, Тюменская обл, Тюмень г, Орджоникидзе ул, дом № 63а ТЦ ЦУМ;Пн-Вс (10:00-21:00);57,148704;65,540968
LQ97;Ирк ТЦ Jam МОЛЛ;664043, Иркутская обл, Иркутск г, Сергеева ул, дом № 3 ТЦ Jam МОЛЛ;Пн-Вс (10:00-21:00);52,265177;104,22299
GL96;Крнд Анапа2;353440, Краснодарский край, Анапский р-н, Анапа г, Красноармейская ул, дом № 15;Пн-Вс (08:00-20:00);44,898591;37,324834
GA12;ЕК Алапаевск;624600, Свердловская обл, Алапаевск г, Братьев Серебряковых ул, дом № 14;Пн-Вс (09:00-19:00);57,851773;61,695117
GB52;Пермь Айсберг;614000, Пермский край, Пермь г, Попова ул, дом № 16 ТЦ Айсберг;Пн-Вс (09:00-21:00);58,008549;56,228164
GC33;Тмн Столица;625000, Тюменская обл, Тюмень г, Московский тракт, дом № 118;Пн-Вс (10:00-22:00);57,135147;65,493796
L422;Сергиев Посад2;141310, Московская обл, Сергиево-Посадский р-н, Сергиев Посад г, Красной Армии пр-кт, дом № 171;Ср-Вс (09:00-19:00);56,316107;38,136709
GA94;ЕК Победы;620042, Свердловская обл, Екатеринбург г, Победы ул, дом № 96;Пн-Вс (09:00-21:00);56,903558;60,588116
GM54;РнД Горизонт;"344000, Ростовская обл, Ростов-на-Дону г, Михаила Нагибина пр-кт, дом № 32 Ж ТЦ Горизонт, 1-ый этаж, возле кинотеатра ""КиноМакс""";Пн-Вс (10:00-22:00);47,259405;39,719957
YP29;СПб Василеостровская;190000, Санкт-Петербург г, Средний ВО пр-кт, дом № 28/29, литера А, помещение 23-Н;Пн-Вс (09:00-21:00);59,943026;30,279306
YR28;СПб ОКЕЙ Озерки;194356, Санкт-Петербург г, Выборгское ш, дом № 3, корпус 1;Пн-Вс (10:00-21:00);60,038319;30,320823
YR25;СПб ОКЕЙ Космонавтов;196233, Санкт-Петербург г, Космонавтов пр-кт, дом № 45, литера А;Пн-Вс (10:00-21:00);59,851445;30,350138
YR23;СПб ОКЕЙ Жукова;198332, Санкт-Петербург г, Маршала Жукова пр-кт, дом № 31, корпус 1;Пн-Вс (10:00-21:00);59,858528;30,228573
L286;Климовск;142180, Московская обл, Климовск г, 50- летия Октября пр-кт, дом № 7;Пн-Вс (09:00-19:00);55,379658;37,542405
LB42;РТ Набережные Челны4;"423800, Татарстан Респ, Набережные Челны г, им Вахитова пр-кт, остановка ""Глобус""";Пн-Вс (09:00-21:00);55,745614;52,424284
LA37;РТ Бугульма;423230, Татарстан Респ, Бугульминский р-н, Бугульма г, Газинура Гафиатуллина ул, дом № 47А;Пн-Вс (09:00-20:00);54,536413;52,789489
GD89;Члб Сталеваров;454038, Челябинская обл, Челябинск г, Сталеваров ул, дом № 66;Вт-Чт (10:00-18:00), Сб-Вс (10:00-18:00);55,251678;61,402379
L282;Истра2;143500, Московская обл, Истринский р-н, Истра г, Урицкого пл, дом № 1А ТК;Пн-Вс (09:00-21:00);55,91407;36,862274
GN99;Крнд Стасова;350000, Краснодарский край, Краснодар г, Ставропольская ул, дом № 189/1;Пн-Вс (09:00-20:00);45,017087;39,04184
GD19;Члб Гагарина;454010, Челябинская обл, Челябинск г, Гагарина ул, дом № 16;Пн-Вс (10:00-20:00);55,139689;61,439593
LD34;МРД Саранск3;"430000, Мордовия Респ, Саранск г, Косарева ул, Территория северо-восточного рынка, павильон ""Хозтовары"" №17 рынок Заречье,";Пн-Вс (09:00-20:00);54,197431;45,243559
GN57;Крнд Лоо;354208, Краснодарский край, Сочи г, Лазаревский р-н, Лоо п, Декабристов ул, дом № 20ж;Пн-Вс (08:00-18:00);43,688217;39,594558
GB46;Крг Шадринск;641870, Курганская обл, Шадринск г, Свердлова ул, дом № 62;Пн-Вт (10:00-18:00), Чт-Пт (10:00-18:00), Вс (10:00-18:00);56,085438;63,619389
LR20;Кмр Арго;650025, Кемеровская обл, Кемерово г, Кузнецкий пр-кт, дом № 79;Пн-Вс (09:00-21:00);55,344251;86,059835
GO18;Крнд Геленджик;353460, Краснодарский край, Геленджик г, Островского ул, дом № 15;Пн-Вс (09:00-21:00);44,561217;38,080297
YP60;СПб Зеленогорск;197720, Санкт-Петербург г, Зеленогорск г, Ленина пр-кт, дом № 17 Б, литера А;Пн-Вс (09:00-21:00);60,197985;29,706172
YB24;Кинешма;155800, Ивановская обл, Кинешемский р-н, Кинешма г, Рылеевская ул, дом № 3;Пн-Вс (09:00-19:00);57,443223;42,16905
LC96;РТ Чебоксары Мега Молл;428000, Чувашская Респ, Чебоксары г, Калинина ул, дом № 105А;Пн-Сб (10:00-21:00), Вс (10:00-20:00);56,137687;47,277987
GC34;Тмн Тобольск;626150, Тюменская обл, Тобольск г, 4-й мкр, дом № 57/2;Пн (09:00-17:00), Ср-Чт (09:00-17:00), Сб-Вс (09:00-17:00);58,218652;68,277185
GB84;Пермь Молодежная;614000, Пермский край, Пермь г, Первомайская ул мкр-он Молодежный, дом № 10;Пн-Вс (10:00-20:00);58,114949;56,366954
LB83;РТ Савиново;421001, Татарстан Респ, Казань г, Ямашева пр-кт, дом № 93;Пн-Вс (10:00-21:00);55,826073;49,148825
GN44;Ствр Кисловодск;357700, Ставропольский край, Кисловодск г, Горького ул, дом № 26/ ул. 40 лет Октября 13/ ул. А. Губина 1а;Пн-Вс (08:00-20:00);43,909551;42,707912
GL23;Астр Исады;"414000, Астраханская обл, Астрахань г, Наташи Качуевской ул./Свердлова ул./Ногина ул, дом № 27/96/4, литер строения ""Г""";Пн-Вс (08:00-20:00);46,352937;48,038283
LQ57;Ирк Байкальская;664046, Иркутская обл, Иркутск г, Байкальская ул, ост. Волжская подземный переход, правая сторона;Пн-Вс (10:00-20:00);52,263166;104,31349
LE56;СРТ Энгельс3;413111, Саратовская обл, Энгельс г, Строителей пр-кт, дом № 2;Пн-Вс (09:00-21:00);51,48002;46,128044
YS27;СПб Южный полюс;192241, Санкт-Петербург г, Пражская ул, дом № 48/50, литера А ТЦ Южный Полюс;Пн-Вс (10:00-22:00);59,863867;30,403371
GA45;ЕК Карнавал;620034, Свердловская обл, Екатеринбург г, Халтурина ул, дом № 55;Пн-Вс (10:00-22:00);56,853121;60,550471
YP23;СПб Ашан-Парнас;188640, Ленинградская обл, Всеволожский р-н, западнее пос. Бугры, пересечение КАД (кольцевой дороги) и автодороги Санкт-Петербург - Скотное Пересечение КАД и пр-та Энгельса, ТЦ Ашан Парнас;Пн-Вс (09:00-20:00);60,092623;30,381546
LR23;Кмр Лапландия;650023, Кемеровская обл, Кемерово г, Октябрьский пр-кт, дом № 34;Пн-Вс (10:00-21:00);55,350397;86,133617
LA28;РТ Баймак - Салавата Юлаева;453631, Башкортостан Респ, Баймакский р-н, Баймак г, Салавата Юлаева ул, дом № 17;Пн-Вс (09:00-20:00);52,59475;58,303222
LQ94;Ирк Тулун;665268, Иркутская обл, Тулун г, Ленина ул, дом № 96а;Пн-Вс (09:00-21:00);54,55712;100,578038
YB94;Мценск;303030, Орловская обл, Мценск г, Мира ул, дом № 36;Пн-Вс (09:00-20:00);53,279518;36,57343
GA39;ЕК Каменск-Уральский3;623408, Свердловская обл, Каменск-Уральский г, Суворова ул, дом № 24;Пн-Вс (10:00-21:00);56,390757;61,929403
GB75;Пермь Кудымкар;619000, Пермский край, Кудымкар г, Данилова ул, дом № 13в;Пн-Вс (09:00-19:00);59,016795;54,657176
L408;Раменское4;"140108, Московская обл, Раменский р-н, Раменское г, Ногина ул, у магазина ""Россияне""";Пн-Вс (10:00-21:00);55,567173;38,225148
YP35;СПб Всеволожск 2;188643, Ленинградская обл, Всеволожский р-н, Всеволожск г, Всеволожский пр-кт, дом № 72;Пн-Пт (11:00-17:00);60,014763;30,647276
LA24;РТ Альметьевск - Панорама;423450, Татарстан Респ, Альметьевский р-н, Альметьевск г, Ленина ул, дом № 100;Пн-Вс (10:00-22:00);54,899325;52,273924
GD96;Члб Троицк2;457100, Челябинская обл, Троицкий р-н, Троицк г, Гагарина ул, дом № 39;Пн-Вс (09:00-21:00);54,08853;61,558274
L233;Воскресенск;140200, Московская обл, Воскресенский р-н, Воскресенск г, Ленина пл, дом № 5;Пн-Вс (10:00-22:00);55,321627;38,672868
L384;Павловский Посад2;142500, Московская обл, Павлово-Посадский р-н, Павловский Посад г, Революции пл, дом № 7;Пн-Ср (09:00-18:00), Пт (09:00-18:00), Вс (09:00-18:00);55,780809;38,652217
GL62;Влд ТКРеал;"400000, Волгоградская обл, Волгоград г, Историческая ул, дом № 175 ООО ТРК ""Реал-гипермаркет""";Пн-Вс (09:00-22:00);48,756119;44,478213
LR22;Кмр Кесало;650903, Кемеровская обл, Кемерово г, Ленина ул, юго-восточнее дома №135;Пн-Вт (09:00-19:00), Чт-Сб (09:00-19:00);55,347956;86,160103
YR31;СПб ОКЕЙ Просвещения;195297, Санкт-Петербург г, Просвещения пр-кт, дом № 80, корпус 2, литера А;Пн-Вс (10:00-21:00);60,039093;30,409846
LC48;РТ Ульяновск - Дарс;432072, Ульяновская обл, Ульяновск г, Ульяновский пр-кт, дом № 1 Заволжский район;Пн-Вс (10:00-21:00);54,369196;48,587101
LQ64;Ирк Братск 2;665709, Иркутская обл, Братск г, Энергетик жилрайон, Пирогова ул, на существующей остановочной площадке, северо-восточнее дома №10 северо-восточнее дома № 10;Пн-Вс (09:00-19:00);56,311193;101,750984
YC81;Смоленск4;214000, Смоленская обл, Смоленск г, Гагарина пр-кт, дом № 1 ТЦ Юнона,1 этаж;Пн-Вс (10:00-20:00);54,777284;32,050389
YB66;Ливны;303850, Орловская обл, Ливны г, М.Горького ул, дом № 7;Пн-Вс (09:00-19:00);52,427099;37,605731
LR07;Ирк Усть-Илимск 1;"666681, Иркутская обл, Усть-Илимск г, Мечтателей ул, р-н кинотеатра ""Яросама""";Пн-Вс (09:00-21:00);57,943039;102,741523
GL49;Влд Михайловка;403343, Волгоградская обл, Михайловка г, Обороны ул, дом № 44;Пн-Вс (09:00-19:00);50,071546;43,234239
LQ91;Ирк Тайшет;665008, Иркутская обл, Тайшет г, Транспортная ул, 22 метра на юго-восток от дома №11 22 метра на юго-восток от дома № 11;Пн-Вс (09:00-19:00);55,937546;98,010662
L241;Дзержинский;140090, Московская обл, Дзержинский г, Лесная ул, дом № 1;Пн-Вт (09:00-19:00), Пт-Вс (09:00-19:00);55,630742;37,854005
YB08;Иваново8;153037, Ивановская обл, Иваново г, 8 Марта ул, дом № 32;Пн-Вс (10:00-22:00);57,005306;40,984528
LR10;Ирк Усть-Кут;666784, Иркутская обл, Усть-Кут г, Кирова ул, дом № 19/а привокзальной площади ст. Лена;Пн-Вс (09:00-20:00);56,780894;105,744762
LD89;НН ТЦ Гагаринский;603009, Нижегородская обл, Нижний Новгород г, Гагарина пр-кт, дом № 105 А ТЦ Гагаринский;Пн-Вс (09:00-21:00);56,235755;43,952655
LA54;РТ Гай - Ленина;462631, Оренбургская обл, Гай г, Ленина ул, дом № 48;Пн-Вс (10:00-20:00);51,675198;58,640656
L474;Щелково6;141113, Московская обл, Щелковский р-н, Щелково г, Пролетарский пр-кт, дом № 4, корпус 3;Пн-Вс (10:00-21:00);55,917144;37,997232
YP34;СПб Восстания 1;191036, Санкт-Петербург г, Восстания ул, дом № 1 Лит. Б, пом. 1Н;Пн-Вс (09:00-22:00);59,931901;30,360489
GO10;Крнд Белореченск;352630, Краснодарский край, Белореченский р-н, Белореченск г, Ленина ул, дом № 75а;Пн-Вс (08:00-21:00);44,756027;39,875632
LS85;Омск Проспект Мира;644029, Омская обл, Омск г, Нефтезаводская ул, дом № 7 пересечение с Мира пр-кт, дом № 68;Пн (10:00-20:00), Ср-Пт (10:00-20:00), Вс (10:00-20:00);55,029451;73,271009
LE38;СРТ Московская;410000, Саратовская обл, Саратов г, Московская ул, дом № 59/30;Пн-Вс (09:00-21:00);51,533013;46,037469
GM84;РнД Новочеркасск2;346400, Ростовская обл, Новочеркасск г, Просвещения ул, дом № 112/57;Пн-Вс (09:00-21:00);47,41881;40,093834
GA60;ЕК Купец;620014, Свердловская обл, Екатеринбург г, 8 Марта ул, дом № 46;Пн-Вс (10:00-22:00);56,828355;60,600324
LC43;РТ Туймазы Ленина;452750, Башкортостан Респ, Туймазинский р-н, Туймазы г, Ленина пр-кт, дом № 10, офис 82;Пн-Вс (09:00-21:00);54,603305;53,700695
LB78;РТ ПаркХаус;420124, Татарстан Респ, Казань г, Ямашева пр-кт, дом № 46/33;Пн-Вс (09:00-22:00);55,829624;49,118651
YB60;Курск5;305018, Курская обл, Курск г, Кулакова пр-кт, остановка Сеймский Рынок;Пн-Вс (09:00-20:00);51,67473;36,145352
GE08;Члб Южноуральск;457040, Челябинская обл, Южноуральск г, Мира ул, дом № 44;Вт-Чт (10:00-18:00), Сб-Вс (10:00-18:00);54,442216;61,270512
LB15;РТ Кумертау Карла Маркса;453300, Башкортостан Респ, Кумертау г, Карла Маркса ул, дом № 30, пом.3;Пн-Вс (10:00-21:00);52,756842;55,794808
LS75;Омск Амурская;644052, Омская обл, Омск г, Челюскинцев 4-я ул, дом № 119, помещение 6П;Пн-Вс (09:00-21:00);55,026493;73,413706
YR32;СПб ОКЕЙ Пулковский;196140, Санкт-Петербург г, Пулковское ш, дом № 17 ГМ Окей;Пн-Вс (10:00-20:00);59,827499;30,316229
YR36;СПб ОКЕЙ Электросила;196105, Санкт-Петербург г, Московский пр-кт, дом № 137;Пн-Вс (10:00-22:00);59,881596;30,315588
YR21;СПб ОКЕЙ Большевиков;193231, Санкт-Петербург г, Большевиков пр-кт, дом № 10, корпус 1;Пн-Вс (10:00-21:00);59,912017;30,480284
L051;Ереван Плаза;115191, Москва г, Тульская Б. ул, дом № 13;Пн-Вс (10:00-22:00);55,70875;37,622091
LB85;РТ Салават Ленина;453262, Башкортостан Респ, Салават г, Ленина ул, дом № 25/9, пом.1;Пн-Вс (10:00-21:00);53,352711;55,923867
GO72;ЭЛСТ Элиста2;358000, Калмыкия Респ, Элиста г, В.И.Ленина ул, дом № 222, строение 1;Пн-Вс (08:00-20:00);46,30767;44,255265
YR58;СПб Радуга;196105, Санкт-Петербург г, Космонавтов пр-кт, дом № 14, квартал 4;Пн-Вс (10:00-22:00);59,869271;30,350566
GN35;Ствр Буденновск;356800, Ставропольский край, Буденновский р-н, Буденновск г, Красная ул, дом № 238;Пн-Вс (08:00-20:00);44,782763;44,162221
L151;ТЦ Бауманская;105005, Москва г, Бауманская ул, дом № 32, стр 2 ТЦ Елоховский пассаж;Пн-Вс (10:00-22:00);55,772334;37,677969
LC09;РТ Сибай Горняков;453833, Башкортостан Респ, Сибай г, Горняков пр-кт, дом № 20;Пн-Пт (10:00-18:00);52,721003;58,668367
LS58;НСиб ТЦ Красный проспект;630049, Новосибирская обл, Новосибирск г, Красный пр-кт, дом № 101 ТЦ Роял Парк;Пн-Вс (10:00-22:00);55,055369;82,911515
GM33;РнД Азов2;346787, Ростовская обл, Азов г, Мира ул, дом № 24;Пн-Вс (08:00-19:00);47,103338;39,424859
YR18;СПб ОКЕЙ Балканский;192281, Санкт-Петербург г, Малая Балканская ул, дом № 27, литера А ТЦ Окей;Пн-Вс (10:00-20:00);59,82971;30,382998
YR22;СПб ОКЕЙ Выборгский;194017, Санкт-Петербург г, Выборгское ш, дом № 19, корпус 1, литера А ГМ Окей;Пн-Вс (10:00-22:00);60,056513;30,309849
LD84;НН Сергач-Школьная;607500, Нижегородская обл, Сергачский р-н, Сергач г, Школьная ул, дом № 5А/1, строение 2;Пн-Ср (08:00-18:00), Сб-Вс (08:00-18:00);55,521387;45,502212
L361;Нахабино - 2;143432, Московская обл, Красногорский р-н, Нахабино пгт, Институтская ул, дом № 1А;Пн-Вс (09:00-21:00);55,841468;37,182258
YP32;СПб Волхов;187406, Ленинградская обл, Волховский р-н, Волхов г, Молодежная ул, дом № 8;Пн-Вс (09:00-20:00);59,897171;32,352666
LA35;РТ Благовещенск Седова;453431, Башкортостан Респ, Благовещенский р-н, Благовещенск г, Седова ул, дом № 111, пом./секци 22 пом/секция оф. 22;Пн-Вс (09:00-19:00);55,04809;55,955824
L287;Климовск-2;142180, Московская обл, Климовск г, Ленина ул, перед жилым домом № 16;Пн-Вс (09:00-19:00);55,360221;37,52068
LB62;РТ Октябрьский - Ленина;452614, Башкортостан Респ, Октябрьский г, Ленина пр-кт, дом № 5 г. Октябрьский, ул. Ленина д. 5;Пн-Вс (09:00-20:00);54,4825;53,469468
LD66;НН Кулебаки-Воровского;607018, Нижегородская обл, Кулебакский р-н, Кулебаки г, Воровского ул, дом № 47;Пн (09:00-19:00), Чт-Вс (09:00-19:00);55,426937;42,52055
GD49;Члб Кыштым;456871, Челябинская обл, Кыштым г, Карла Либкнехта ул, дом № 117;Пн-Ср (10:00-20:00), Пт (10:00-20:00), Вс (10:00-20:00);55,703053;60,556526
GN22;Крнд ГеленджикСВ3;353465, Краснодарский край, Геленджик г, Ленина ул, дом № 1 ТЦ Геленджик;Пн-Вс (08:00-20:00);44,561582;38,07724
LD83;НН Семёнов-Ленина;"606650, Нижегородская обл, Семенов г, Ленина ул, дом № 17а пристрой к магазину ""Простор""";Пн (09:30-18:30), Ср (09:30-18:30), Пт-Вс (09:30-18:30);56,789718;44,484789
YR49;СПб Просвещения3;194291, Санкт-Петербург г, Просвещения пр-кт, участок № 91 юго-западнее пересечения пр-кта Просвещения (у дома 35)  и пр-кта Художников;Пн-Вс (09:00-21:00);60,048999;30,353619
GD83;Члб Сатка;456910, Челябинская обл, Саткинский р-н, Сатка г, Пролетарская ул, дом № 41;Вт-Чт (10:00-18:00), Сб-Вс (10:00-18:00);55,037605;58,971803
GB51;Пермь 7 Континент;614025, Пермский край, Пермь г, Героев Хасана ул, дом № 105;Пн-Вс (10:00-22:00);57,9661;56,262471
YB78;Лиски;397901, Воронежская обл, Лискинский р-н, Лиски г, Коммунистическая ул, дом № 22б;Пн-Вс (07:00-19:00);50,978406;39,506951
GM76;Рнд КрСулин;346356, Ростовская обл, Красносулинский р-н, Красный Сулин г, Фурманова ул, дом № 2;Пн-Вс (08:00-20:00);47,896638;40,064222
GA66;ЕК Мегаполис;620142, Свердловская обл, Екатеринбург г, 8 Марта ул, дом № 149 помещение 118-120;Пн-Вс (10:00-22:00);56,80712;60,611985
YS09;СПб ТЦ Москва;191317, Санкт-Петербург г, Александра Невского пл, дом № 2, литера Е, помещение 33Н, 34Н, 46Н, 47Н, 3ЛК, 6ЛК, 8ЛК ТЦ Москва;Пн-Вс (10:00-21:00);59,924484;30,386598
LP40;Камч Елизово;684007, Камчатская обл, Елизовский р-н, Елизово г, Завойко ул, дом № 7;Пн-Сб (10:00-20:00), Вс (10:00-19:00);53,187045;158,383859
LQ93;Ирк Тайшет Суворова;665000, Иркутская обл, Тайшет г, Суворова ул, дом № 3в/1;Пн-Вт (09:00-19:00), Чт-Сб (09:00-19:00);55,936797;98,018725
LS09;Крск Минусинск;662600, Красноярский край, Минусинск г, Абаканская ул, дом № 53/1;Пн-Вс (09:00-20:00);53,691725;91,66907
LQ05;Алтай Бийск 9 Января;659315, Алтайский край, Бийск г, 9 Января пл, дом № 1;Пн-Вс (09:00-19:00);52,51125;85,145934
GA90;ЕК Первоуральск3;623101, Свердловская обл, Первоуральск г, Космонавтов пр-кт, дом № 13 ТЦ Марс;Пн-Чт (10:00-18:00), Вс (10:00-18:00);56,909954;59,931323
YO99;Мрмск ОКЕЙ Октябрьский;183038, Мурманская обл, Мурманск г, Ленина пр-кт, дом № 34;Пн-Вс (10:00-22:00);68,956866;33,067736
GN82;Крнд Ритейл-Парк;350065, Краснодарский край, Краснодар г, Уральская ул, дом № 98/11 ТЦ Ритейл Парк;Пн-Вс (10:00-22:00);45,024304;39,043917
GC42;Тмн Ялуторовск;627014, Тюменская обл, Ялуторовский р-н, Ялуторовск г, Красноармейская ул, дом № 31;Пн-Вс (09:00-19:00);56,65701;66,311566
YP68;СПб Кингисепп ТК Норд;188480, Ленинградская обл, Кингисеппский р-н, Кингисепп г, Октябрьская ул, дом № 9 ТК Норд;Пн-Вс (10:00-21:00);59,376425;28,607934
L157;ТЦ Домодедовский;115551, Москва г, Ореховый б-р, дом № 14, корпус 3 ТЦ Домодедовский;Пн-Вс (10:00-22:00);55,609727;37,720149
GL69;Влд Юбилейный2;400055, Волгоградская обл, Волгоград г, Героев Сталинграда пр-кт, дом № 3М;Пн-Вс (09:00-20:00);48,517848;44,564162
GN25;Крнд Гулькевичи;352190, Краснодарский край, Гулькевичский р-н, Гулькевичи г, Красная ул, дом № 5;Пн-Вс (08:00-20:00);45,360659;40,695384
GN46;Крнд Курганинск;352430, Краснодарский край, Курганинский р-н, Курганинск г, Комсомольская ул, дом № 37;Пн-Вс (08:00-20:00);44,881874;40,589397
GC73;ХМАО Нижневартовск2;628600, Ханты-Мансийский Автономный округ - Югра АО, Нижневартовск г, Ленина ул, дом № 15/П;Пн-Вс (10:00-22:00);60,94007;76,546191
GC74;ХМАО Нижневартовск4;628600, Ханты-Мансийский Автономный округ - Югра АО, Нижневартовск г, Интернациональная ул, дом № 73 ТЦ Подсолнух;Пн-Вс (11:00-20:00);60,943922;76,634632
LT27;Чита Сувениры;672000, Забайкальский край, Чита г, Ленина ул, дом № 125;Пн-Вс (09:00-21:00);52,036255;113,493108
YC15;Обнинск6;249034, Калужская обл, Обнинск г, Маркса пр-кт, дом № 45;Пн-Вс (10:00-22:00);55,120779;36,583576
MV84;ТЦ Люблинский пассаж2 ЕС;Москва г, Краснодарская ул 51корп2;Пн-Вс (10:00-22:00);55,67699;37,76465
L240;Дедовск;143532, Московская обл, Истринский р-н, Дедовск г, Железнодорожная ул, дом № 15;Пн-Вс (09:00-21:00);55,866023;37,125612
YP48;СПб Гатчина3;188300, Ленинградская обл, Гатчинский р-н, Гатчина г, Соборная ул, дом № 18, литера Б, помещение 11;Пн-Вс (10:00-20:00);59,565794;30,12687
LQ81;Ирк Литвинова;664003, Иркутская обл, Иркутск г, Литвинова ул, дом № 17;Пн-Вс (09:00-21:00);52,282043;104,295301
GE18;ЯНАО Муравленко;629000, Ямало-Ненецкий АО, Муравленко г, Ленина ул, дом № 99;Пн-Вт (09:00-19:00), Ср (10:00-18:00), Чт-Вс (09:00-19:00);63,793837;74,496579
GM80;РнД Миллерово2;346130, Ростовская обл, Миллеровский р-н, Миллерово г, Российская ул, дом № 59-б;Пн-Вс (08:00-20:00);48,925583;40,399646
LR12;Ирк Усть-Ордынский;669001, Иркутская обл, Эхирит-Булагатский р-н, Усть-Ордынский п, Ленина ул, дом № 21, кв.3а;Пн-Вс (09:00-21:00);52,805334;104,752306
U996;Пермь Кунгур3 ЕС;617470, Кунгур г, Пугачева ул 25;Пн-Пт (10:00-18:00);57,42677;56,95016
N066;Кмр Молодежный ЕС;650000, Кемерово г, Молодежный пр 2;Пн-Вс (10:00-21:00);55,3288;86,12478
L489;Печатники3;109383, Москва г, Шоссейная ул, дом № 1/2, строение 4;Пн-Вс (09:00-21:00);55,691734;37,728164
UR09;ЕК ТЦ Академический ЕС;620016, Екатеринбург г, Краснолесья ул 133;Пн-Вс (10:00-22:00);56,793;60,52018
LQ83;Ирк Нижнеудинск;665106, Иркутская обл, Нижнеудинск г, Ленина ул, в районе д. 51;Пн (09:00-19:00), Вт-Пт (09:00-21:00), Сб (09:00-19:00), Вс (09:00-21:00);54,904717;99,030367
LP41;Амур Зея;676244, Амурская обл, Зея г, Шохина ул, дом № 12;Пн-Пт (09:00-19:00);53,753712;127,278583
P738;ПНЗ Строителей3 ЕС;440028, Пенза г, Строителей пр-т 1в;Пн-Вс (10:00-22:00);53,22021;44,95209
N507;Ирк Литвинова3 ЕС;664003, Иркутск г, Литвинова ул 17;Пн-Вс (09:00-21:00);52,28201;104,29477
GN02;Крнд Армавир Кирова;352900, Краснодарский край, Армавир г, Кирова ул, дом № 54;Пн-Вс (08:00-20:00);44,998144;41,129265
YB96;Нелидово;172527, Тверская обл, Нелидово г, Ленина пр-кт, дом № 9/18;Пн-Вт (09:00-19:00), Чт (09:00-19:00), Сб-Вс (09:00-19:00);56,225939;32,773053
RE36;Тамбов Носовская ЕС;392000, Тамбов г, Носовская ул 9;Пн-Вс (08:00-20:00);52,72322;41,44757
R173;Кольчугино2 ЕС;601780, Кольчугино г, 3 Интернационала ул 67;Пн-Вс (10:00-19:00);56,29808;39,37952
LB23;РТ Мелеуз Иремель;453850, Башкортостан Респ, Мелеузовский р-н, Мелеуз г, Смоленская ул, дом № 38 ТЦ Иремель;Пн-Вс (09:00-21:00);52,961757;55,933245
LC46;РТ ТЦ Южный;420000, Татарстан Респ, Казань г, Победы пр-кт, дом № 91 ТЦ Южный;Пн-Вс (10:00-22:00);55,768376;49,217187
LE50;СРТ Триумф Молл;410054, Саратовская обл, Саратов г, им Зарубина ВС ул, дом № 167;Пн-Вс (10:00-22:00);51,540902;46,013444
NE06;Омск ТЦ Маяк Молл ЕС;Омск г, Комарова пр-кт 6 к 1;Пн-Вс (10:00-21:00);54,99684;73,28555
R753;Карачев ТЦ Виктория ЕС;242500, Карачев г, 50 лет Октября ул 105 В;Пн-Вс (09:15-19:00);53,12252;34,98197
GE70;ХМАО Сургут ТЦ Росич;628405, Ханты-Мансийский Автономный округ - Югра АО, Сургут г, Геологическая ул, дом № 10 ТЦ Росич;Пн-Вс (10:00-22:00);61,237635;73,447039
N454;КО Белово Юбилейная ЕС;652600, Белово г, Юбилейная ул 9;Пн-Вс (09:00-20:00);54,41107;86,30811
U199;Члб Карталы1 ЕС;457353, Карталы г, Пушкина ул 24;Пн-Вс (10:00-20:00);53,05295;60,64061
U879;ЕК ТЦ Дирижабль1 ЕС;620089, Екатеринбург г, Шварца 17;Пн-Вс (10:00-22:00);56,79692;60,62683
GB38;Крг Каргаполье;641920, Курганская обл, Каргапольский р-н, Каргаполье рп, Калинина ул, дом № 39, корпус А;Пн (09:00-18:00), Чт-Вс (09:00-18:00);55,953331;64,435634
LS16;Крск Норильск Ленинский 20;663300, Красноярский край, Норильск г, Ленинский пр-кт, дом № 20 помещение 60;Пн-Вс (11:00-20:00);69,348145;88,203711
L350;Мытищи17;141031, Московская обл, Мытищинский р-н, Алтуфьевское ш., 1-й км, строение 1 ТРЦ Весна, помещение 1-057;Пн-Вс (10:00-22:00);55,913104;37,584262
LP72;Камч Петропавловск 6 км;683024, Камчатская обл, Петропавловск-Камчатский г, 50 лет Октября пр-кт, дом № 13 остановка 6 км;Пн-Вс (09:00-21:00);53,054127;158,638008
GB40;Крг Куртамыш;641430, Курганская обл, Куртамышский р-н, Куртамыш г, Ленина пр-кт, дом № 6 Б;Пн-Вс (09:00-20:00);54,912195;64,431897
GE13;ЯНАО Губкинский Меркурий;629830, Ямало-Ненецкий АО, Губкинский г, 12-й мкр, дом № 25;Пн-Пт (09:00-21:00), Сб-Вс (09:00-20:00);64,434876;76,504626
L232;Волоколамск2;143600, Московская обл, Волоколамский р-н, Волоколамск г, Панфилова ул, дом № 22;Пн-Вс (10:00-22:00);56,031347;35,958384
K072;Крнд Тихорецк Подвойского ЕС;352120, Тихорецк г, Подвойского ул 39/2;Пн-Вс (08:00-20:00);45,85107;40,13219
R360;Брянск ТЦ Линия ЕС;241000, Брянск г, Брянского фронта ул 2;Пн-Вс (09:00-21:00);53,25743;34,32614
P431;РТ Чишмы Кирова2 ЕС;452171, Чишмы рп, Кирова ул 52;Пн-Вс (09:00-19:00);54,5911;55,39313
K581;Ствр Изобильный Ленина ЕС;356140, Изобильный г, Ленина пер 12А;Пн-Вс (09:00-19:00);45,37065;41,7083
LD30;МРД Саранск Сити Парк2;430009, Мордовия Респ, Саранск г, Волгоградская ул, дом № 71 ТЦ Сити Парк;Пн-Вс (10:00-22:00);54,181573;45,203906
L402;Пушкино4;141207, Московская обл, Пушкинский р-н, Пушкино г, Московский пр-кт, дом № 3, кв.33;Пн-Пт (09:00-21:00), Сб-Вс (09:00-22:00);56,011515;37,843292
GN29;СО Владикавказ Столица;362043, Северная Осетия - Алания Респ, Владикавказ г, Астана Кесаева ул, дом № 2, корпус А ТЦ Столица;Пн-Вс (10:00-21:00);43,052911;44,638639
GN85;Крнд Северская;353240, Краснодарский край, Северский р-н, Северская ст-ца, Комарова ул, дом № 11;Пн-Вс (08:00-19:00);44,846998;38,671693
YD24;Тула14;300001, Тульская обл, Тула г, Пролетарская ул, дом № 22а 1 этаж;Пн-Вс (10:00-21:00);54,199561;37,636844
YC22;Орел20;302000, Орловская обл, Орел г, Пушкина ул, дом № 44 А, Литера А1 Литера А1;Пн-Вт (09:00-19:00), Пт-Вс (09:00-19:00);52,967914;36,083844
LQ61;Ирк Бодайбо;666904, Иркутская обл, Бодайбо г, Урицкого ул, дом № 22а-3;Пн-Вс (09:00-21:00);57,848748;114,203019
LP88;Амур Тында Красная Пресня;676290, Амурская обл, Тында г, Красная Пресня ул, дом № 31;Пн-Вс (09:00-20:00);55,150251;124,738601
GC67;ХМАО Междуреченский;628200, Ханты-Мансийский Автономный округ - Югра АО, Кондинский р-н, Междуреченский пгт, Толстого ул, дом № 36;Пн-Вс (09:00-19:00);59,596325;65,905395
S853;Архск Котлас ТЦ Кристалл2 ЕС;165300, Котлас г, Невского ул 11;Пн-Вс (09:00-21:00);61,24975;46,63221
MW80;Мега Белая Дача4 ЕС;140054, Котельники г, 1-й Покровский пр-д ТЦ «Мега Бел 51;Пн-Вс (10:00-23:00);55,65759;37,8477
YA98;Жердевка;393670, Тамбовская обл, Жердевский р-н, Жердевка г, Советская ул, дом № 99;Пн-Вс (09:00-20:00);51,839706;41,469035
GB95;Пермь Соликамск2;618553, Пермский край, Соликамск г, Северная ул, дом № 46 ТЦ;Пн-Вс (10:00-20:00);59,701625;56,708012
YO49;Архск Северодвинск ТЦ ЦУМ;164500, Архангельская обл, Северодвинск г, Ломоносова ул, дом № 81, помещение 6;Пн-Вс (11:00-21:00);64,55031;39,78583
WM69;РТ Кукмор2 ЕС;"422110, Кукмор пгт, Ленина 30Б пристрой с существующему магазину ""Ратмир"",литер 2Б";Пн-Вс (08:00-19:00);56,186;50,89564
X637;Якутия Хандыга1 ЕС;678720, Хандыга пгт, П.Алексеева ул 13 а;Пн-Вс (09:00-19:00);62,64847;135,57958
LS54;Нсиб ТЦ Версаль;630078, Новосибирская обл, Новосибирск г, Карла Маркса пл, дом № 3 ТЦ Версаль;Пн-Вс (10:00-22:00);54,98404;82,891721
YC90;Старый Оскол8;309504, Белгородская обл, Старый Оскол г, Интернациональный мкр, дом № 9а;Пн-Вс (08:00-20:00);51,285201;37,807386
N641;Алтай Новоалтайск Парковая ЕС;658080, Новоалтайск г, Парковая ул 1;Пн-Ср (09:00-19:00), Пт-Сб (09:00-19:00);53,4128;83,9321
KD37;Влд 30-летия Победы ЕС;400137, Волгоград г, б-р 30-летия Победы 21;Пн-Вс (10:00-22:00);48,74906;44,49666
P149;РТ Тольятти ТЦ Акварель2 ЕС;445000, Тольятти г, Южное ш/Обводное ш 34;Пн-Вс (10:00-22:00);53,55001;49,34217
YA75;Вязники2;601443, Владимирская обл, Вязниковский р-н, Вязники г, Ленина ул, дом № 29;Пн-Пт (09:00-18:00);56,24234;42,125275
ND25;Алтай Барнаул ТЦ Алтай2 ЕС;656023, Барнаул г, Космонавтов пр-т 6в;Пн-Вс (10:00-21:00);53,38884;83,73276
KG09;РСО Ардон Пролетарская ЕС;363330, Ардон г, Пролетарская ул 91 А;Пн-Вс (08:00-20:00);43,17996;44,30401
U668;Пермь Дворец Связи ЕС;614000, Пермь г, Комсомольский пр-т 24;Пн-Вс (08:00-22:45);58,01176;56,23902
N630;Тыва Кызыл Калинина2 ЕС;667000, Кызыл г, Калинина ул 1д;Пн-Вс (08:00-20:00);51,70278;94,42302
U500;Пермь ТЦ Кит ЕС;614000, Пермь г, Крупской ул 79а;Пн-Вс (10:00-21:00);57,99739;56,29409
UR59;Пермь Лысьва Центральный универмаг;618900, Лысьва г, Мира ул 3;Пн-Вс (09:00-21:00);58,09952;57,80001
LQ76;Ирк Залари;666322, Иркутская обл, Заларинский р-н, Залари рп, Ленина ул, дом № 83;Пн-Вс (10:00-20:00);53,553217;102,496534
LR49;КО Мариинск ТЦ Палата;652150, Кемеровская обл, Мариинский р-н, Мариинск г, Ленина ул, дом № 90 ТЦ Палата;Пн-Вс (10:00-20:00);56,206376;87,745419
GD80;Члб Пласт;457020, Челябинская обл, Пластовский р-н, Пласт г, Октябрьская ул, дом № 64;Пн-Вс (10:00-20:00);54,354338;60,813866
LS46;Нсиб Громова;630088, Новосибирская обл, Новосибирск г, Громова ул, дом № 12;Пн-Пт (09:00-19:00);54,936902;82,908509
GC69;ХМАО Нефтеюганск3;628309, Ханты-Мансийский Автономный округ - Югра АО, Нефтеюганск г, 2-й мкр, дом № 33 ТЦ Европа;Пн-Вс (10:00-21:00);61,087755;72,610348
YO53;Архск ТРК Титан Арена;163000, Архангельская обл, Архангельск г, Воскресенская ул, дом № 20 ТРК Титан Арена;Пн-Вс (10:00-21:00);64,54204;40,535633
GB94;Пермь Соликамск Европа;618553, Пермский край, Соликамск г, Северная ул, дом № 55, помещение № 38 ТЦ Европа;Пн-Вс (10:00-20:00);59,700294;56,715326
N516;НСО Искитим Юбилейная ЕС;633200, Искитим г, Юбилейная ул 2;Пн-Вс (09:00-20:00);54,63267;83,30289
MI32;Люберцы Инициативная ЕС;140000, Люберцы г, Инициативная ул 14 стр 3;Пн-Вс (09:00-21:00);55,68316;37,89854
GC06;Пермь Чернушка2;617830, Пермский край, Чернушинский р-н, Чернушка г, Юбилейная ул, дом № 6а;Пн-Пт (10:00-18:00);56,51962;56,07874
GN03;Крнд Армавир Красная Площадь;352922, Краснодарский край, Армавир г, Воровского ул, дом № 69 ТРЦ Красная Площадь;Пн-Вс (10:00-22:00);44,983057;41,096721
GE36;ЯНАО Салехард4 Апельсин;629007, Ямало-Ненецкий АО, Салехард г, Ленина ул, дом № 44 ТЦ Апельсин;Пн-Вс (10:00-20:00);66,525829;66,599236
GA98;ЕК Полевской4;623380, Свердловская обл, Полевской г, Зеленый Бор-1 мкр, дом № 4а помещение 4;Пн-Вс (10:00-20:00);56,504903;60,263819
LA91;РТ Йошкар-Ола ТЦ Планета;424003, Марий Эл Респ, Йошкар-Ола г, Баумана ул, дом № 16;Пн-Вс (10:00-21:00);56,64101;47,843455
LT49;Бур Улан-Удэ КТК Гэлакси;670000, Бурятия Респ, Улан-Удэ г, Балтахинова ул, дом № 15;Пн-Вс (10:00-20:00);51,826527;107,589659
RH49;Орел Металлургов ЕС;302038, Орел г, Металлургов ул 20;Пн-Чт (09:00-19:00), Сб (09:00-19:00);53,01271;36,14447
UR05;ЕК Камышлов2 ЕС;624860, Камышлов г, Ленина ул 30;Пн-Вс (09:00-20:00);56,8464;62,71217
KD58;ЧР Аргун Беркат ЕС;366310, Аргун г, Шоссейеая ул. напротив дома 113;Пн-Вс (09:00-19:00);43,27769;45,87313
LQ43;Збк Шилка;673370, Забайкальский край, Шилкинский р-н, Шилка г, Ленина ул, дом № 29;Пн-Пт (09:00-19:00);51,853465;116,028187
GB03;ЕК Радуга Парк;620000, Свердловская обл, Екатеринбург г, Репина ул, дом № 94, 1 этаж, помещение 207;Пн-Вс (10:00-22:00);56,816441;60,538446
LR06;Ирк Усолье-Сибирское Луначарского;665462, Иркутская обл, Усолье-Сибирское г, Красных Партизан пр-кт, дом № 24 в торцевой части жилого дома № 24;Пн-Вт (10:00-19:00), Чт-Сб (10:00-19:00);52,73248;103,656677
LP87;Прим Спасск-Дальний;692245, Приморский край, Спасск-Дальний г, Борисова ул, дом № 23;Пн-Ср (09:00-19:00), Пт-Сб (09:00-19:00);44,597878;132,816463
K133;Крнд Сочи ТЦ Татулян ЕС;354000, Сочи г, Ленина ул 1;Пн-Вс (09:00-21:00);43,42555;39,92589
K903;РнД Шахты Победа Революции ЕС;346500, Шахты г, Победа Революции пр-кт 99А;Пн-Вс (08:00-20:00);47,70679;40,21442
L531;ТРЦ Щелковский2;105122, Москва г, Щелковское ш, владение № 75;Пн-Чт (10:00-22:00), Пт-Сб (10:00-23:00), Вс (10:00-22:00);55,805311;37,763132
LT11;Хкс Абаза;655750, Хакасия Респ, Абаза г, Лазо ул, дом № 2г;Пн (09:00-19:00), Ср-Пт (09:00-19:00), Вс (09:00-19:00);52,650441;90,08731
P111;СРТ Дачная ЕС;410052, Саратов г, 3-я Дачная ул. Остановка, ТЦ Тау Галерея;Пн-Вс (10:00-22:00);51,57736;45,9735
GO03;РнД Таганрог Русское поле2;347900, Ростовская обл, Таганрог г, Чехова ул, дом № 320-5, литера А;Пн (09:00-19:00), Ср-Чт (09:00-19:00), Сб-Вс (09:00-19:00);47,221252;38,867174
YB56;Курск29;305018, Курская обл, Курск г, Харьковская ул, дом № 3;Пн-Вс (09:00-21:00);51,674124;36,145359
GL10;Адг Ашан;385132, Адыгея Респ, Тахтамукайский р-н, Новая Адыгея аул, Тургеневское шоссе ул, дом № 27 ТЦ Мега Ашан;Пн-Вс (08:30-22:00);45,013289;38,929057
YD15;Торжок2;172001, Тверская обл, Торжок г, Степана Разина ул, дом № 2-4;Пн-Вс (09:00-19:00);57,043023;34,96788
LT31;Чита ТЦ Фортуна;672014, Забайкальский край, Чита г, Недорезова ул, дом № 1м;Вт (11:00-21:00), Чт-Вс (11:00-21:00);52,035909;113,47059
L344;Можайск2;143200, Московская обл, Можайский р-н, Можайск г, Красных Партизан ул, дом № 1;Вт-Чт (09:00-19:00), Сб-Вс (09:00-19:00);55,50633;36,017558
LA93;РТ Ишимбай Аструм2;453215, Башкортостан Респ, Ишимбайский р-н, Ишимбай г, Стахановская ул, дом № 92;Пн-Вс (10:00-20:00);53,449732;56,03729
L139;ТРЦ Колумбус;117519, Москва г, Кировоградская ул, дом № 13А ТРЦ Колумбус;Пн-Вс (10:00-22:00);55,611554;37,608387
N329;Омск Карла Маркса ЕС;644010, Омск г, Карла Маркса пр-кт 29;Пн-Вс (09:00-22:00);54,97348;73,38267
LQ85;Ирк Розы Люксембург2;664013, Иркутская обл, Иркутск г, Розы Люксембург ул, у дома №217 а;Пн-Вс (09:00-21:00);52,350333;104,174084
N477;Алтай Горно-Алтайск ТЦ Горный2 ЕС;649000, Горно-Алтайск г, Коммунистическая ул 109/2;Пн-Вс (09:00-20:00);51,96207;85,91259
L093;Перекресток Коммунарка;142770, Москва г, Сосенское п, Коммунарка п, Александры Монаховой ул, домовладение № 30, строение 2 ТЦ Перекресток;Пн-Вс (10:00-22:00);55,566662;37,482537
L328;Люберцы ТЦ Выходной;140000, Московская обл, Люберецкий р-н, Люберцы г, Октябрьский пр-кт, дом № 112 ТЦ Выходной;Пн-Вс (10:00-22:00);55,685196;37,877686
L192;ТЦ Щука2;123182, Москва г, Щукинская ул, дом № 42;Пн-Вс (10:00-22:00);55,80946;37,465612
LP28;Прим Владивосток Луговая;690013, Приморский край, Владивосток г, Трамвайная ул, дом № 14Б;Пн-Вс (09:00-20:00);43,111376;131,938144
YP02;Мрмск Полярные Зори Рынок;184230, Мурманская обл, Полярные Зори г, Энергетиков ул, дом № 27;Пн-Вс (10:00-21:00);67,371206;32,485024
LT06;Тыва Кызыл Кочетова;667000, Тыва Респ, Кызыл г, Кочетова ул, дом № 47;Пн-Вс (09:00-21:00);51,719358;94,440955
LP57;Якутия Мирный Советская;678175, Саха /Якутия/ Респ, Мирнинский у, Мирный г, Советская ул, дом № 6, корпус 1;Пн-Вс (09:00-21:00);62,541764;113,981102
LP70;Камч Петропавловск Парус;683024, Камчатская обл, Петропавловск-Камчатский г, 50 лет Октября пр-кт, дом № 16/1 ТЦ Парус;Пн-Вс (10:00-20:00);53,057006;158,635007
S055;Мрмск Заозерск ЕС;184310, Заозерск г, Ленинского Комсомола ул 7;Пн-Пт (10:00-19:00);69,40594;32,44321
LZ43;Якутск Туймаада;677000, Саха /Якутия/ Респ, Якутск г, Орджоникидзе ул, дом № 38 ТЦ Туймаада;Пн-Вс (10:00-21:00);62,029154;129,728919
GC80;ХМАО Нягань3;628180, Ханты-Мансийский АО, Нягань г, Ленина ул, дом № 28 ТЦ Оазис Плаза;Пн-Вс (10:00-20:00);62,148415;65,435177
LT26;Чита Рокоссовского;672042, Забайкальский край, Чита г, Маршала Рокоссовского ул, 16г Павильон;Пн-Пт (09:00-19:00);52,069989;113,391351
L221;Балашиха9;143900, Московская обл, Балашиха г, Советская ул, дом № 11 А, корпус 2;Пн-Вс (09:00-21:00);55,79966;37,934282
GD58;Члб Магнитогорск17;"455038, Челябинская обл, Магнитогорск г, Карла Маркса пр-кт, дом № 153 ТК ""Гостинный двор""";Пн-Вс (10:00-21:00);53,379015;58,980901
YC33;Павловск2;396420, Воронежская обл, Павловский р-н, Павловск г, Гранитный мкр, дом № 6а;Пн-Вс (08:00-19:00);50,449736;40,125054
GB34;Крг Вильмс2;640000, Курганская обл, Курган г, Куйбышева ул, дом № 72, корпус Б ТЦ Даниловский;Пн-Ср (10:00-20:00), Сб-Вс (10:00-20:00);55,438361;65,357484
LD95;НН ТЦ Муравей2;603034, Нижегородская обл, Нижний Новгород г, Ленина пр-кт, дом № 33, 1-этаж, помещение П18 ТЦ Муравей, 1 этаж, пом. П18;Пн-Вс (09:00-20:45);56,287415;43,928562
GD40;Члб Кольцо;454087, Челябинская обл, Челябинск г, Дарвина ул, дом № 18-а ТЦ Кольцо;Пн-Вс (10:00-22:00);55,126445;61,368854
L167;ТЦ Конфетти;117042, Москва г, Веневская ул, дом № 6 ТЦ Витте Молл;Пн-Вс (10:00-22:00);55,547872;37,543257
LP66;Якутия Нюрба Центр;678450, Саха /Якутия/ Респ, Нюрбинский у, Нюрба г, Степана Васильева ул, дом № 60;Пн-Вс (09:00-19:00);63,282432;118,340143
X634;Якутия Усть-Нера ЕС;678730, Усть-Нера пгт, Ленина ул 23;Пн-Вс (11:00-19:00);64,56554;143,23548
LP12;Амур Белогорск Кирова;676850, Амурская обл, Белогорск г, Кирова ул, дом № 83;Пн (09:00-19:00), Ср-Чт (09:00-19:00), Сб-Вс (09:00-19:00);50,92237;128,471187
YB31;Ковров2;601901, Владимирская обл, Ковров г, Ленина пр-кт, дом № 49;Вт (09:00-18:00), Чт-Вс (09:00-18:00);56,353591;41,311526
YR29;СПб ОКЕЙ Партизана Германа;198205, Санкт-Петербург г, Партизана Германа ул, дом № 2, литера А ГМ ОКЕЙ;Пн-Вс (10:00-21:00);59,845025;30,176663
P177;РТ Новоспасское ЕС;433870, Новоспасское рп, Ульяновская ул 5А;Пн-Вс (08:00-18:00);53,15212;47,7532
GL22;Астр Знаменск3;416550, Астраханская обл, Знаменск г, 9 Мая пр-кт, дом № 10, строение 7;Пн-Пт (09:00-19:00);48,588489;45,716118
N384;Ирк Усолье-Сибирское Орджоникидзе;665452, Усолье-Сибирское г, Орджоникидзе ул 31;Пн-Вс (09:00-21:00);52,75294;103,65871
S939;СПб ТК Невский ЕС;193168, Санкт-Петербург г, Большевиков пр-кт 18;Пн-Вс (10:00-22:00);59,90793;30,48266
U501;Члб Магнитогорск ТЦ Гостиный Двор;455000, Магнитогорск г, Карла Маркса ул 153;Пн-Вс (10:00-21:00);53,37869;58,98153
LC45;РТ ТЦ Кольцо;420107, Татарстан Респ, Казань г, Петербургская ул, дом № 1 комната №121;Пн-Вс (10:00-22:00);55,786408;49,124251
N731;Крск ТК Республика ЕС;660037, Красноярск г, Красноярский Рабочий пр-кт 27, строение 78 (ТК Мега);Пн-Вс (10:00-21:00);56,02161;93,01369
L547;ТРЦ Браво4;115211, Москва г, Борисовские Пруды ул, владение № 26, корпус 2 ТРЦ Браво;Пн-Вс (10:00-22:00);55,639974;37,758215
GN95;Крнд Сочи Хоста2;354037, Краснодарский край, Сочи г, Платановая ул, дом № 15/1;Пн-Вс (08:00-20:00);43,511395;39,866802
GD98;Члб ТЦ Алмаз;454000, Челябинская обл, Челябинск г, Копейское ш, дом № 64 ТЦ Алмаз;Пн-Вс (10:00-22:00);55,145695;61,449957
LS24;Крск Северо-Енисейский ТЦ Апельсин;663282, Красноярский край, Северо-Енисейский р-н, Северо-Енисейский гп, Ленина ул, дом № 5Г/1;Пн-Вс (10:00-20:00);60,377762;93,039398
W436;РТ Йошкар-Ола ТЦ Планета2 ЕС;424000, Йошкар-Ола г, Баумана ул 16;Пн-Вс (10:00-21:00);56,64101;47,84346
YO15;СКТ Печора Гагарина;169600, Коми Респ, Печора г, Гагарина ул, дом № 41;Пн-Вс (09:00-21:00);65,122982;57,158019
GO36;Ствр Буденновск Рынок;356800, Ставропольский край, Буденновский р-н, Буденновск г, Октябрьская ул, дом № 77;Пн-Вс (08:00-20:00);44,781639;44,157067
YC85;Сосновка;393840, Тамбовская обл, Сосновский р-н, Сосновка рп, Моршанская ул, дом № 39А стр.1;Пн-Вс (08:00-19:00);53,228442;41,373914
LT01;Томск Фрунзенский рынок;634000, Томская обл, Томск г, Комсомольский пр-кт, дом № 53, корпус а;Вт-Ср (10:00-20:00), Пт-Вс (10:00-20:00);56,475822;84,980815
YS15;СПб ТЦ Рубикон;195299, Санкт-Петербург г, Гражданский пр-кт, дом № 119, Литер А;Пн-Вс (10:00-21:00);60,033982;30,420772
L285;Кашира4;142900, Московская обл, Каширский р-н, Кашира г, Стрелецкая ул, дом № 68;Вт-Ср (09:00-19:00), Пт-Вс (09:00-19:00);54,826419;38,149418
L296;Коломна10;140407, Московская обл, Коломна г, Советская пл, дом № 8;Пн-Вс (09:00-21:00);55,095675;38,763986
LQ82;Ирк Муравьева;"664002, Иркутская обл, Иркутск г, Сибирских Партизан ул, в районе остановка ""Кафе"" остановка ""Кафе""";Вт-Ср (10:00-20:00), Пт-Вс (10:00-20:00);52,349665;104,218249
YP51;СПб Гранд-Каньон2;194017, Санкт-Петербург г, Энгельса пр-кт, дом № 154, литера А ТЦ ГрандКаньон;Пн-Вс (10:00-22:00);60,058995;30,334952
GD56;Члб Магнитогорск14;454000, Челябинская обл, Магнитогорск г, Завенягина ул, дом № 10а ТЦ Мост-1;Пн (10:00-18:00), Ср (10:00-18:00), Пт-Вс (10:00-18:00);53,380524;58,97902
GD86;Члб Сим;456022, Челябинская обл, Ашинский р-н, Сим г, Кирова ул, напротив жилого дома 15;Вт-Чт (10:00-18:00), Сб-Вс (10:00-18:00);54,988043;57,687386
LS99;Томск ТЦ Мирамикс;634000, Томская обл, Томск г, Мира пр-кт, дом № 36;Пн-Вс (10:00-21:00);56,515016;84,974386
GN26;Крнд Джубга2;352844, Краснодарский край, Туапсинский р-н, Джубга кп, Черноморская ул, дом № 66/1;Пн-Вс (08:00-20:00);44,31049;38,701831
KG37;Крнд Крымск Синева ЕС;353380, Крымск г, Синева ул 13;Пн-Вс (08:00-20:00);44,92985;37,98745
R743;Галич2 ЕС;157201, Галич г, Свободы ул 1;Пн-Вс (09:00-19:00);58,3799;42,3459
W089;Кир Котельнич Советская ЕС;612600, Котельнич г, Советская ул 99;Пн-Ср (09:00-18:00), Пт (09:00-18:00), Вс (09:00-17:00);58,30301;48,34208
P176;СРТ Хвалынск ТЦ ЕС;г. Хвалынск,  Торговый центр, 1;Пн-Вс (08:00-18:00);52,49509;48,1046
W597;РТ Казань Ленинградская Бахетле2 ЕС;420000, Казань г, Ленинградская ул 27;Пн-Вс (10:00-21:00);55,86325;49,08491
RF17;Курск ТЦ Гринн ЕС;305000, Курск г, Энгельса ул 70;Пн-Вс (09:00-20:00);51,70593;36,16638
S743;Великий Устюг ТЦ Прокопьевский ЕС;162390, Великий Устюг г, Гледенская 61;Пн-Вс (09:00-19:00);60,77265;46,27228
UE48;ЕК ТЦ Глобус ЕС;620023, Екатеринбург г, Щербакова ул 4;Пн-Вс (10:00-22:00);56,78855;60,64902
GC46;ХМАО Сургут Аура;628406, Ханты-Мансийский АО, Сургут г, Нефтеюганское ш, дом № 1 ТЦ Аура;Пн-Вс (09:30-22:00);61,277559;73,36516
LA86;РТ Ижевск ТЦ Ленина;426075, Удмуртская Респ, Ижевск г, Ленина ул, дом № 138;Пн-Вс (10:00-21:00);56,847383;53,284288
GL34;Астр ТЦ Ярмарка;414040, Астраханская обл, Астрахань г, Вокзальная пл, дом № 13, литер А;Пн-Вс (10:00-22:00);46,359921;48,055347
GE66;ЕК Каменск-Уральский ТЦ Каменск;623428, Свердловская обл, Каменск-Уральский г, Победы пр-кт, дом № 65;Пн-Вс (09:00-21:00);56,424483;61,900745
P353;РТ Уфа Мега3 ЕС;450018, Уфа г, Рубежная 174;Пн-Вс (10:00-22:00);54,67455;55,92879
L514;Кубинка ТЦ Авиатор;"143070, Московская обл, Одинцовский р-н, Кубинка г, Наро-Фоминское ш, дом № 23 ТРЦ ""Авиатор""";Пн-Вс (10:00-20:00);55,560989;36,69874
YD16;Торопец;172840, Тверская обл, Торопец г, Советская ул, дом № 7/2;Пн-Вс (09:00-19:00);56,495471;31,643039
GO08;Рнд ТРК Вавилония;344092, Ростовская обл, Ростов-на-Дону г, Космонавтов пр-кт, дом № 2/2;Пн-Вс (10:00-22:00);47,280158;39,718307
LR14;Ирк Черемхово Шевченко;665401, Иркутская обл, Черемхово г, Шевченко ул, дом № 70;Пн (10:00-19:00), Ср-Пт (10:00-19:00), Вс (10:00-19:00);53,114346;103,156282
YP91;СПб Лодейное Поле;187700, Ленинградская обл, Лодейнопольский р-н, Лодейное Поле г, Ленина пр-кт, дом № 47А;Пн-Пт (10:00-19:00);60,734107;33,544346
YA36;Валуйки;309991, Белгородская обл, Валуйский р-н, Валуйки г, Клубная ул, дом № 2;Пн-Вс (08:00-18:00);50,200893;38,119091
LP03;Якутия Амга Ленина;678600, Саха /Якутия/ Респ, Амгинский у, Амга с, Ленина ул, дом № 7;Пн-Сб (09:00-19:00), Вс (09:00-18:00);59,64944;127,116657
LE24;СРТ Балаково ТЦ Грин Хаус;413863, Саратовская обл, Балаково г, Трнавская ул, дом № 24;Пн-Вс (10:00-21:00);52,022751;47,829543
L508;ТЦ Саларис;142784, Москва г, Московский п, Саларьево д, Киевское шоссе 23 км, дом № 1;Пн-Вс (10:00-22:00);55,621811;37,424048
LB97;РТ Самара ТЦ Аврора3;443069, Самарская обл, Самара г, Аэродромная ул, дом № 47, корпус А ТЦ Аврора;Пн-Вс (10:00-22:00);53,191329;50,188723
LS15;Крск Норильск Кайеркан Дом быта;663340, Красноярский край, Норильск г, Школьная ул, дом № 16 Красноярский край, г. Норильск, район Кайеркан, ул. Школьная , д. 16;Пн-Вс (11:00-20:00);69,350503;87,755043
U168;Члб ТЦ КС ЕС;454000, Челябинск г, Черкасская ул 15;Пн-Вс (10:00-21:00);55,23033;61,3792
S809;Архск ТЦ Петромост2 ЕС;163057, Архангельск г, Ленинградский пр 255;Пн-Вс (10:00-21:00);64,51034;40,66389
N920;Хкс Аскиз ЕС;655700, Аскиз пгт, Победы ул уч. 5-2;Пн-Пт (09:00-19:00), Сб-Вс (09:00-17:00);53,132395;90,534667
R066;Кинешма5 ЕС;155800, Кинешма г, Рылеевская ул 3;Пн-Вс (09:00-19:00);57,44203;42,16897
GA70;ЕК Нижний Тагил ТЦ Квадрат;622000, Свердловская обл, Нижний Тагил г, ул. Пархоменко 41 (на пересечении улиц Пархоменко - Серова);Пн-Вс (10:00-21:00);57,919746;59,965947
LZ46;Хаб Чегдомын;682030, Хабаровский край, Верхнебуреинский р-н, Чегдомын рп, Центральная ул, дом № 36;Пн-Вс (09:00-19:00);51,133707;133,034583
U611;ХМАО Сургут ТЦ Альбатрос ЕС;628400, Сургут г, Ленина пр-кт 37;Пн-Вс (09:00-22:00);61,25408;73,39146
YB58;Курск33;305007, Курская обл, Курск г, Сумская ул, дом № 44;Пн-Вс (09:00-21:00);51,710726;36,141811
GE37;ЯНАО Уренгой;629860, Ямало-Ненецкий АО, Пуровский р-н, Уренгой пгт, 3-й мкр, дом № 19 А ТЦ Айсберг;Пн-Вс (10:00-21:00);65,960532;78,375689
P701;ПНЗ Кирова2 ЕС;440000, Пенза г, Кирова ул 73;Пн-Вс (09:00-21:00);53,19841;45,02138
YP96;СПб Луга ТК Айсберг;188230, Ленинградская обл, Лужский р-н, Луга г, Урицкого пр-кт, дом № 77, корпус 3 ТК Айсберг;Пн-Вс (10:00-20:00);58,732686;29,844034
MV06;Чехов ТЦ Карнавал ЕС;"142300, Чехов г, Московская ул,вл.96""КАРНАВАЛ""";Пн-Вс (10:00-22:00);55,15345;37,45948
GA87;ЕК Омега2;620012, Свердловская обл, Екатеринбург г, Космонавтов пр-кт, дом № 41;Пн-Вс (09:00-21:00);56,899749;60,613267
P529;РТ Оренбург Гагарина4 ЕС;460051, Оренбург г, Гагарина пр-кт 48/3;Пн-Вс (09:30-21:00);51,77645;55,18504
LS08;Крск Лесосибирск Белинского;662543, Красноярский край, Лесосибирск г, Белинского ул, дом № 36 пом. 76;Вт (09:00-19:00), Чт-Вс (09:00-19:00);58,192427;92,525917
L128;Троицк2;142191, Москва г, Троицк г, Академическая пл, дом № 3;Пн-Вс (09:00-21:00);55,815792;37,380031
P193;РТ Сорочинск Володарского ЕС;461900, Оренбургская обл., г. Сорочинск, ул. Володарского, д. 16, корп. А;Пн-Вс (09:00-20:00);52,43145;53,15754
L544;Тверская9;125009, Москва г, Тверская ул, дом № 17;Пн-Вс (11:00-21:00);55,758748;37,611583
KD42;РСО Владикавказ Владикавказская ЕС;362045, Владикавказ г, Владикавказская 26;Пн-Вс (08:00-20:00);43,04864;44,63274
S022;Калин Светлый ЕС;238340, Светлый г, Горького ул 13Г;Пн-Пт (10:00-18:00);54,67662;20,13805
GB42;Крг Макушино;641600, Курганская обл, Макушинский р-н, Макушино г, Ленина ул, дом № 66А;Пн-Вс (09:00-19:00);55,206257;67,249742
ND26;КО Нкуз ТЦ Сити Молл2 ЕС;Новокузнецк г, Кирова ул, д. 55, пом. 1053;Пн-Вс (10:00-22:00);53,75836;87,13764
R565;Шацк ЕС;391550, Шацк г, Комсомольская ул 2А;Пн-Пт (09:00-19:00);54,025;41,7095
LZ40;Якутск Ленина2;677000, Саха /Якутия/ Респ, Якутск г, Ленина пр-кт, дом № 9;Пн-Вс (09:00-20:00);62,032327;129,743156
KG75;ЧР Грозный Лорсанова ЕС;364051, Грозный г, Лорсанова ул 1А;Пн-Вс (09:00-18:00);43,32648;45,68774
NE96;НСО Довольное ЕС;Новосибирская область, с.Довольное, ул. Ленина, 108;Пн-Пт (09:00-18:00), Сб-Вс (10:00-17:00);54,49611;79,66217
GB24;ЕК ТЦ Кировский;620072, Свердловская обл, Екатеринбург г, Сыромолотова ул, дом № 22 ТЦ Кировский;Пн-Вс (10:00-20:00);56,834608;60,682455
L488;Красково2;140050, Московская обл, Люберецкий р-н, Красково п, Карла Маркса ул, дом № 117/21;Пн-Вс (09:00-21:00);55,66048;37,991819
GO24;РСО Владикавказ Куйбышева;362025, Северная Осетия - Алания Респ, Владикавказ г, Куйбышева ул, дом № 21;Пн-Вс (08:00-20:00);43,032103;44,697107
YO46;Архск Северодвинск Мира15;164509, Архангельская обл, Северодвинск г, Мира ул, дом № 15;Пн-Вс (11:00-19:00);64,595419;39,810504
GO99;Крнд Анапа4;353440, Краснодарский край, Анапский р-н, Анапа г, Крымская ул, дом № 151;Пн-Вс (09:00-21:00);44,897991;37,324017
LS19;Крск Норильск ТЦ Арена;663319, Красноярский край, Норильск г, Металлургов пл, дом № 10 1 этаж;Пн-Вс (10:00-22:00);69,360224;88,18432
GE24;ЯНАО Новый Уренгой Проспект;"629300, Ямало-Ненецкий АО, Новый Уренгой г, Ленинградский пр-кт, с западной стороны от торгового центра ""Белые Ночи""";Пн-Вс (09:00-21:00);66,084921;76,685936
L278;Звенигород3;143180, Московская обл, Звенигород г, Московская ул, дом № 20/15;Пн-Вс (09:00-21:00);55,729544;36,85846
GD79;Члб Озерск2;456780, Челябинская обл, Озерск г, Карла Маркса пр-кт, дом № 19 А;Пн-Вс (10:00-20:00);55,756944;60,690991
LC50;РТ Ульяновск Аквамолл;432049, Ульяновская обл, Ульяновск г, Московское ш, дом № 108;Пн-Вс (10:00-22:00);54,306663;48,359836
YC46;Ржев3;172389, Тверская обл, Ржев г, Бехтерева ул, дом № 82;Пн-Вс (09:00-21:00);56,264129;34,329875
YO82;Карел Костомукша;186931, Карелия Респ, Костомукша г, Лазарева б-р, дом № 1, литера А;Пн-Вс (10:00-20:00);64,588594;30,60052
GD50;Члб Кыштым2;456870, Челябинская обл, Кыштым г, Ленина ул, дом № 31а;Пн-Ср (10:00-20:00), Сб-Вс (10:00-20:00);55,707012;60,550633
P062;РТ Самара ТЦ Вива Лэнд ЕС;443077, Самара г, Кирова пр-кт 147;Пн-Вс (10:00-22:00);53,22057;50,263
R598;Рязань Первомайский ЕС;390013, Рязань г, Первомайский пр-т 70;Пн-Вс (10:00-22:00);54,6301;39,71176
LC04;РТ Саракташ рынок;462100, Оренбургская обл, Саракташский р-н, Саракташ п, Крупской ул, дом № 61 Б;Пн-Вс (10:00-19:00);51,781193;56,357044
YP31;СПб Волосово;188410, Ленинградская обл, Волосовский р-н, Волосово г, Вингиссара пр-кт, дом № 14 б;Пн-Пт (10:00-17:00);59,444042;29,482257
YP13;Псков Невель2;182500, Псковская обл, Невельский р-н, Невель г, Комсомольская ул, дом № 39;Вт-Сб (10:00-18:00);56,015246;29,930185
N999;КО Мариинск ТЦ Сибирский Городок ЕС;652150, Мариинск г, Ленина 90;Пн-Вс (10:00-20:00);56,20633;87,74544
LQ54;Ирк Ангарск ТЦ Фестиваль;665824, Иркутская обл, Ангарск г, 192-й кв-л, дом № 12 помещение 73;Пн-Вс (09:00-21:00);52,504585;103,839155
YC92;Струнино;601672, Владимирская обл, Александровский р-н, Струнино г, Кирова пл, дом № 7;Пн-Вт (09:00-19:00), Чт-Сб (09:00-19:00);56,374935;38,584025
U731;ЕК Каменск-Уральский ТЦ Апельсин ЕС;623400, Каменск-Уральский г, Суворова ул 24;Пн-Вс (10:00-21:00);56,39075;61,92937
UR52;Крг ТЦ Стрекоза ЕС;640000, Курган г, 2 микрорайон ул 17;Пн-Вс (10:00-22:00);55,46485;65,26472
U236;Члб Чебаркуль1 ЕС;456440, Чебаркуль г, Ленина ул 30;Пн-Вт (10:00-19:00), Чт (10:00-19:00), Сб-Вс (10:00-19:00);54,9779;60,36544
MU67;Егорьевск ТЦ Форум ЕС;140301, Егорьевск г, Советская ул 157;Пн-Вс (09:00-21:00);55,37794;39,04494
LS50;Нсиб Первомайская2;630030, Новосибирская обл, Новосибирск г, Первомайская ул, дом № 39/4;Пн-Пт (09:00-19:00);54,966458;83,109417
K585;Крнд Горячий Ключ Революции ЕС;353290, Горячий Ключ г, Революции ул 4;Пн-Вс (09:00-20:00);44,63575;39,1338
LP82;Амур Свободный Карла Маркса;676450, Амурская обл, Свободный г, Карла Маркса ул, дом № 24;Пн-Вс (09:00-20:00);51,376218;128,137235
GD69;Члб Миасс7;456320, Челябинская обл, Миасс г, в районе Торгового центра в Северной части Макеева пр-кт, в районе д.22;Пн (10:00-20:00), Ср-Сб (10:00-20:00);55,153287;60,155178
LZ13;Хабаровск ТЦ Суворов;680000, Хабаровский край, Хабаровск г, Суворова ул, дом № 25 ТЦ Суворов;Пн-Вс (10:00-21:00);48,393787;135,129162
YC78;Смоленск14;214000, Смоленская обл, Смоленск г, Ново-Московская ул, дом № 2/8;Пн-Вс (10:00-21:00);54,795212;32,064235
LD28;МРД Огарев Плаза2;430000, Мордовия Респ, Саранск г, Б.Хмельницкого ул, дом № 28;Пн-Вс (10:00-21:00);54,186421;45,183164
LQ20;Бур Закаменск;671950, Бурятия Респ, Закаменский р-н, Закаменск г, Ленина ул, дом № 18;Пн-Вс (09:00-19:00);50,37783;103,291198
LR60;КО Нкуз ТЦ Парус;654000, Кемеровская обл, Новокузнецк г, Архитекторов пр-кт, дом № 14а;Пн-Вс (10:00-21:00);53,89278;87,114382
GD59;Члб Магнитогорск19;455047, Челябинская обл, Магнитогорск г, Советская ул, дом № 170;Пн-Вс (10:00-20:00);53,359904;58,960569
LQ41;Збк Хилок;673204, Забайкальский край, Хилокский р-н, Хилок г, Ленина ул, дом № 12а;Пн-Вс (09:00-19:00);51,363918;110,457674
YP82;СПб Красное Село рынок;198320, Санкт-Петербург г, Красное Село г, Массальского ул, дом № 4 лит.А;Пн-Вс (10:00-20:00);59,738798;30,086169
P700;СРТ Орджоникидзе ЕС;410015, Саратов г, Орджоникидзе пл, Г.К. 1;Пн-Вс (10:00-21:00);51,5012;45,94405
LR90;Крск Говорова;660013, Красноярский край, Красноярск г, Говорова ул, дом № 57;Пн-Пт (10:00-20:00);55,996924;93,023406
LB89;РТ Самара Мега Икея2;443028, Самарская обл, Самара г, Московское (24 км) ш, дом № 5, помещение 2014 ТЦ Мега;Пн-Вс (10:00-22:00);53,326227;50,305322
S839;СКТ Усинск Норд Хаус ЕС;169711, Усинск г, Парковая ул 8, лит.Б;Пн-Сб (10:00-20:00), Вс (10:00-18:00);65,99059;57,54498
LS20;Крск Норильск Талнах ТЦ Галактика;663330, Красноярский край, Норильск г, Строителей ул, дом № 12 ТЦ Галактика;Пн-Вс (11:00-20:00);69,484313;88,399067
LQ26;Бур Улан-Удэ Гагарина;670024, Бурятия Респ, Улан-Удэ г, Гагарина ул, дом № 24, павильон №1;Пн-Вс (09:00-21:00);51,841509;107,591026
YD37;Удомля;171841, Тверская обл, Удомельский р-н, Удомля г, Курчатова пр-кт, дом № 7;Пн-Вс (10:00-20:00);57,869938;35,007402
GE69;ЕК ТЦ VEER MALL;620012, Свердловская обл, Екатеринбург г, Космонавтов пр-кт, дом № 108;Пн-Вс (10:00-22:00);56,916483;60,612189
P668;СРТ Ртищево Железнодорожная ЕС;412030, Ртищево г, Железнодорожная ул 48А;Пн-Вс (08:00-20:00);52,25971;43,78587
LS07;Крск Лесосибирск;662547, Красноярский край, Лесосибирск г, 5-й мкр, здание 1;Пн-Вс (09:00-19:00);58,219324;92,505442
LS56;Нсиб ТЦ Континент ГБШ;630000, Новосибирская обл, Новосибирск г, Гусинобродское шоссе, дом № 20;Пн-Вс (10:00-21:00);55,035321;83,002805
LS57;Нсиб ТЦ Континент Троллейная;630000, Новосибирская обл, Новосибирск г, Троллейная ул, дом № 130 А;Пн-Вс (10:00-21:00);54,967056;82,852115
GE38;ЯНАО Тарко-Сале;629850, Ямало-Ненецкий АО, Пуровский р-н, Тарко-Сале г, Тарасова ул, дом № 5 А павильон;Пн-Вс (09:00-21:00);64,913162;77,777759
GA14;ЕК Арамиль;624000, Свердловская обл, Сысертский р-н, Арамиль г, 1 Мая ул, дом № 4 стационарное помещение;Пн-Вс (10:00-20:00);56,72324;60,781764
L153;ТЦ Бум;109341, Москва г, Перерва ул, дом № 43, корпус 1;Пн-Вс (10:00-22:00);55,659669;37,749693
GC84;ХМАО Приобье;628126, Ханты-Мансийский Автономный округ - Югра АО, Октябрьский р-н, Приобье пгт, Центральная ул, дом № 8, корпус Г, пом.1;Пн-Пт (10:00-18:00);62,541345;65,641421
LZ39;Якутск Ленина;677000, Саха /Якутия/ Респ, Якутск г, Ленина пр-кт, дом № 14 помещение 20;Пн-Вс (09:00-20:00);62,030741;129,738055
L023;Ашан Гагаринский;119334, Москва г, Вавилова ул, дом № 3 владение 3;Пн-Вс (09:00-22:00);55,706892;37,592096
LP84;Прим Сибирцево Постышева;692390, Приморский край, Черниговский р-н, Сибирцево пгт, Постышева ул, дом № 10;Пн-Пт (09:00-18:45), Сб-Вс (09:00-17:45);44,204748;132,445656
LE54;СРТ Энгельс Лазурный;413100, Саратовская обл, Энгельс г, Ленина пл, дом № 4;Пн-Вс (10:00-21:00);51,502644;46,118427
GL75;КБР Нальчик Дея;360000, Кабардино-Балкарская Респ, Нальчик г, Кирова ул, дом № 320 ТЦ Дея;Пн-Вс (09:00-21:00);43,502391;43,620915
LQ66;Ирк Братск Гидростроитель;665714, Иркутская обл, Братск г, Гидростроитель жилрайон, Сосновая ул, восточнее дома №19;Пн-Вс (09:00-21:00);56,28496;101,89435
LC81;РТ Уфа ТК Центральный2;450006, Башкортостан Респ, Уфа г, Цюрупы ул, дом № 97;Пн-Вс (10:00-22:00);54,736684;55,956363
U676;Тмн ТЦ Панама ЕС;625000, Тюмень г, Луговая 2-я ул 30;Пн-Вс (10:00-21:00);57,17139;65,54085
YP93;СПб Ломоносов ТЦ Фэмили парк;198412, Санкт-Петербург г, Ломоносов г, Михайловская ул, дом № 40/7, строение 1 ТЦ Фэмили Парк;Пн-Вс (10:00-20:00);59,903034;29,76828
GC49;ХМАО Белоярский ТЦ Оазис Плаза;628162, Ханты-Мансийский Автономный округ - Югра АО, Белоярский г, 5 мкр, участок № 1;Пн-Пт (10:00-18:00);63,725972;66,66666
MX92;ТЦ Кунцево Плаза2 ЕС;121552, Москва, Ярцевская улица, д. 19;Пн-Вс (10:00-22:00);55,73859;37,41101
PD08;РТ Отрадный ТЦ Копейка ЕС;446300, Отрадный г, Нефтяников ул 90;Пн-Вс (09:15-20:00);53,37231;51,35856
P515;РТ Оренбург Советская ЕС;460000, Оренбург г, Советская ул 46;Пн-Вс (09:00-21:00);51,76511;55,1006
UR66;ЕК Верхняя Салда3 ЕС;624760, Свердловская область, Верхняя Салда г, Энгельса ул, д.61;Пн (10:00-18:00), Ср-Сб (10:00-18:00);58,050533;60,558739
KI41;ЭЛСТ Элиста6 ЕС;358000, Элиста г, Ленина ул 239В;Пн-Вс (09:00-21:00);46,30815;44,26408
YD86;Валуйки3;Белгородская обл, Валуйский р-н, Валуйки г, МГорького ул, дом № 2/4;Пн-Вс (09:00-20:00);50,212047;38,097641
P348;РТ Уфа ТК Центральный3 ЕС;450006, Уфа г, Цурюпы 97;Пн-Вс (10:00-22:00);54,73712;55,95783
L029;Бабушкинская;129327, Москва г, Енисейская ул, дом № 19, корпус 1;Пн-Вс (10:00-22:00);55,869208;37,663018
YS29;Вологда11;160000, Вологодская обл, Вологда г, Пошехонское шоссе ул, дом № 22;Пн-Вс (10:00-21:00);59,19723;39,8593
YR59;СПб Рощино2;188820, Ленинградская обл, Выборгский р-н, Рощино пгт, Советская ул, дом № 2;Пн-Вс (09:00-21:00);60,258007;29,596955
UR43;Пермь Полазна ТЦ Дружба ЕС;618703, Полазна пгт, Дружбы ул 3;Пн-Вс (10:00-20:00);58,29193;56,39544
YD62;Первомайский2;393700, Тамбовская обл, Первомайский р-н, Первомайский рп, Ленина пл, дом № 6;Пн-Вс (08:00-19:00);53,243632;40,282299
GM16;Крнд Тюляева;350080, Краснодарский край, Краснодар г, Тюляева ул, дом № 37;Пн-Вс (09:00-20:00);45,037948;39,096083
KI68;КБР Майский Энгельса ЕС;361115, Майский г, Энгельса ул 51;Пн-Вс (08:00-20:00);43,62623;44,05821
W439;РТ Вурнары ЕС;429220, Вурнары пгт, Советская ул 32;Пн-Пт (08:00-19:00), Сб-Вс (08:00-18:00);55,49063;46,95709
GE45;Тмн Упорово;627180, Тюменская обл, Упоровский р-н, Упорово с, Чивилева ул, дом № 1;Пн-Чт (09:00-17:00), Вс (09:00-17:00);56,314013;66,26712
X729;Южно-Сахалинск ТЦ Сити Молл2 ЕС;693000, Южно-Сахалинск г, п/р Хомутово, 2-я центральная 1Б;Пн-Вс (10:00-21:00);46,89968;142,7424
L026;Ашан Пролетарский;115477, Москва г, Пролетарский пр-кт, дом № 30 ТРЦ АШАН;Пн-Вс (09:00-22:00);55,633612;37,657377
P218;РТ Тольятти ТЦ Парк Хаус2 ЕС;445004, Тольятти г, Автозаводское ш 6;Пн-Вс (10:00-22:00);53,54179;49,39056
L248;Дмитров5;141800, Московская обл, Дмитровский р-н, Дмитров г, Профессиональная ул, дом № 7;Пн-Вс (10:00-22:00);56,352535;37,520501
YD29;Тула21;300026, Тульская обл, Тула г, Ленина пр-кт, дом № 122;Пн-Вс (10:00-20:00);54,152851;37,583621
LP90;Амур Тында Юность;676282, Амурская обл, Тында г, Фестивальная ул, дом № 1 А;Пн-Вс (09:00-20:00);55,152955;124,743829
LR37;КО Белово Чкалова;652600, Кемеровская обл, Белово г, Чкалова ул, дом № 11;Пн-Вс (10:00-20:00);54,432364;86,304508
YR40;СПБ Пестеля14;191028, Санкт-Петербург г, Пестеля ул, дом № 14;Пн-Пт (10:00-16:00);59,943015;30,347947
LR70;КО Киселевск Студенческая;652718, Кемеровская обл, Киселевск г, Студенческая ул, дом № 8;Пн-Вс (10:00-20:00);54,005431;86,70537
LR61;КО Нкуз ТЦ Сибирский Городок;654084, Кемеровская обл, Новокузнецк г, Зорге ул, дом № 17;Пн-Вс (09:30-21:00);53,783185;87,281744
R338;Брянск Димитрова ЕС;241000, Брянск г, Димитрова ул 82;Пн-Пт (09:00-19:00);53,26487;34,40875
W329;РТ Козловка ЕС;429430, Козловка г, Лобачевского ул 26Б;Пн (09:00-18:00), Ср-Чт (09:00-18:00), Сб-Вс (09:00-18:00);55,83996;48,24279
LP67;Якутия Олекминск Победы;678103, Саха /Якутия/ Респ, Олекминский у, Олекминск г, 50 лет Победы ул, дом № 82;Пн-Пт (09:00-19:00);60,371284;120,407664
LQ36;Збк Краснокаменск;674676, Забайкальский край, Краснокаменский р-н, Краснокаменск г, 4-й мкр, с южной стороны общественного торгового центра 4-а микрорайона. магазин №12;Пн-Пт (10:00-19:00);50,088888;118,035628
LS94;Томск Проспект Ленина;634009, Томская обл, Томск г, Ленина пр-кт, дом № 84;Пн-Вс (10:00-21:00);56,490117;84,946978
W015;РТ Воткинск Максимум2 ЕС;427430, Воткинск г, 1 Мая ул 108;Ср-Пт (09:00-18:00), Сб-Вс (09:00-17:00);57,06146;53,99837
GE35;ЯНАО Салехард3;629000, Ямало-Ненецкий АО, Салехард г, Подшибякина, дом № 1 помещение 1-5, Литер А;Пн-Вс (09:00-21:00);66,536646;66,62652
YR27;СПб ОКЕЙ Науки;194064, Санкт-Петербург г, Науки пр-кт, дом № 17, корпус 1, литера А ГМ Окей;Пн-Вс (10:00-21:00);60,01498;30,38564
N466;Крск Боготол2 ЕС;662060, Боготол г, Деповская ул 19а;Пн-Вс (10:00-20:00);56,2109;89,52741
K905;Крнд Российская ЕС;350029, Краснодар г, Российская ул 257;Пн-Вс (10:00-22:00);45,08708;39,0124
NE43;КО Юрга ТЦ Спутник ЕС;652057, Юрга г, Машиностроителей ул 32;Пн-Пт (10:00-19:00);55,70939;84,91591
W609;Кир ТЦ Джам Молл ЕС;610017, Киров г., Горького ул 5А;Пн-Вс (10:00-22:00);58,59869;49,64716
YR20;СПб ОКЕЙ Богатырский2;"197082, Санкт-Петербург г, Богатырский пр-кт, дом № 42 Литер А Гипермаркет ""Окей""";Пн-Вс (10:00-20:00);60,002529;30,228233
GN94;Крнд Сочи ТРЦ Горки Город;354392, Краснодарский край, Сочи г, Эсто-Садок с, Горная карусель ул, дом № 3 ТРЦ Горки Город;Пн-Вс (10:00-22:00);43,684148;40,263413
R015;Ярославль ТЦ Космос ЕС;150052, Ярославль г, Ленинградский пр-кт 49А;Пн-Вс (10:00-20:00);57,67935;39,79126
YO04;СКТ Воркута Ленина;169906, Коми Респ, Воркута г, Ленина ул, район ж/д, дом № 32;Пн-Вс (09:00-21:00);67,494768;64,054617
YD25;Тула16;300000, Тульская обл, Тула г, Советская ул, дом № 47;Пн-Вс (10:00-22:00);54,192249;37,617579
LQ14;Алтай Рубцовск ТЦ Радуга;658201, Алтайский край, Рубцовск г, Тракторная ул, дом № 17 ТЦ Радуга;Пн-Вс (09:00-21:00);51,533677;81,205234
GE55;Члб ТЦ Космос;454003, Челябинская обл, Челябинск г, Чичерина ул, дом № 30, корпус 9;Пн-Вс (10:00-22:00);55,181205;61,292899
NE07;Ирк ТЦ Комсомолл ЕС;Иркутск г, Верхняя набережная ул 10;Пн-Вс (10:00-22:00);52,26765;104,28914
R479;Спасск ЕС;391577, Спасск-Рязанский г, Пушкина ул 1А;Пн-Пт (09:00-19:00);54,40833;40,37988
UE39;Тмн Дружбы ЕС;625031, Тюмень г, Дружбы ул 165А;Пн-Вс (08:30-19:45);57,18024;65,58424
RE80;Грязи ТЦ Линия ЕС;399059, Грязи г, 30 лет Победы ул 61А;Пн-Вс (09:00-20:00);52,49642;39,94445
N371;Томск Нахимова ЕС;634034, Томск г, Нахимова ул 15А;Вт-Сб (10:00-20:00);56,4545;84,97353
LQ40;Збк Нерчинск;673403, Забайкальский край, Нерчинский р-н, Нерчинск г, Советская ул, дом № 46;Пн-Пт (09:00-19:00);51,975795;116,587033
P460;РТ Иглино ЕС;452410, Иглино с, Горького 52;Пн-Вс (09:00-20:00);54,82599;56,40392
L494;ТРЦ Афимолл SvStore;"123100, Москва г, Пресненская наб, дом № 2 ТРЦ ""Афимолл""";Пн-Чт (10:00-22:00), Пт-Сб (10:00-23:00), Вс (10:00-22:00);55,749153;37,539474
U283;Пермь Добрянка1 ЕС;618740, Добрянка г, Герцена ул 37;Пн-Вт (09:00-19:00), Пт-Вс (09:00-19:00);58,46834;56,40136
YA35;Бутурлиновка;397500, Воронежская обл, Бутурлиновский р-н, Бутурлиновка г, Блинова ул, дом № 29;Пн-Вс (08:00-18:00);50,828727;40,587177
P755;ПНЗ Кузнецк Белинского4 ЕС;442500, Кузнецк г, Белинского ул 225;Пн-Вс (08:00-19:00);53,11163;46,61273